{"type":"FeatureCollection","features":[{"type":"Feature","properties":{"county_fips":"37001","name":"Alamance"},"geometry":{"type":"Polygon","coordinates":[[[-79.2373,35.8441],[-79.5424,35.8433],[-79.5319,36.2497],[-79.258,36.2434],[-79.2682,35.9092],[-79.2373,35.8441]]]}},{"type":"Feature","properties":{"county_fips":"37003","name":"Alexander"},"geometry":{"type":"Polygon","coordinates":[[[-81.0981,36.0282],[-81.0288,36.0457],[-81.0034,35.9967],[-81.0413,35.8579],[-81.1095,35.7766],[-81.1496,35.829],[-81.3343,35.7963],[-81.3429,35.9232],[-81.3283,35.9966],[-81.2277,36.0308],[-81.0981,36.0282]]]}},{"type":"Feature","properties":{"county_fips":"37005","name":"Alleghany"},"geometry":{"type":"Polygon","coordinates":[[[-81.2536,36.3666],[-81.2442,36.3848],[-81.2654,36.433],[-81.3226,36.4958],[-81.3531,36.5461],[-81.3533,36.5747],[-80.9016,36.5618],[-80.9269,36.5012],[-80.9736,36.4535],[-80.9472,36.4191],[-80.9814,36.3762],[-81.0267,36.3732],[-81.0443,36.4111],[-81.078,36.4179],[-81.0951,36.4408],[-81.1382,36.4125],[-81.163,36.4325],[-81.1879,36.4011],[-81.2536,36.3666]]]}},{"type":"Feature","properties":{"county_fips":"37007","name":"Anson"},"geometry":{"type":"Polygon","coordinates":[[[-80.2768,35.1957],[-80.2639,35.2084],[-80.2514,35.2091],[-80.225,35.1562],[-80.1974,35.1666],[-80.1728,35.1478],[-80.1598,35.1498],[-80.157,35.1738],[-80.1357,35.1676],[-80.113,35.194],[-80.0685,35.1124],[-80.0244,35.0904],[-79.9934,35.0855],[-79.957,35.1144],[-79.924,35.1154],[-79.909,35.067],[-79.8759,35.0426],[-79.9006,35.0057],[-79.8648,34.98],[-79.8723,34.9504],[-79.8491,34.901],[-79.9005,34.8578],[-79.9274,34.8067],[-80.3208,34.8139],[-80.2768,35.1957]]]}},{"type":"Feature","properties":{"county_fips":"37009","name":"Ashe"},"geometry":{"type":"Polygon","coordinates":[[[-81.3786,36.2779],[-81.4144,36.2946],[-81.4303,36.266],[-81.4754,36.253],[-81.4775,36.2403],[-81.5661,36.272],[-81.6382,36.3496],[-81.7394,36.3956],[-81.7169,36.4566],[-81.695,36.4675],[-81.7081,36.5357],[-81.6801,36.5857],[-81.3533,36.5747],[-81.3531,36.5461],[-81.2721,36.4468],[-81.244,36.383],[-81.2559,36.3632],[-81.3214,36.3771],[-81.349,36.3591],[-81.3786,36.2779]]]}},{"type":"Feature","properties":{"county_fips":"37011","name":"Avery"},"geometry":{"type":"Polygon","coordinates":[[[-81.8999,35.9999],[-81.982,35.9114],[-82.0341,35.9421],[-82.0591,35.9883],[-82.0392,36.0078],[-82.081,36.1009],[-82.0543,36.1266],[-82.0301,36.1234],[-81.9181,36.2871],[-81.8935,36.2645],[-81.9112,36.2295],[-81.9031,36.2073],[-81.8854,36.1895],[-81.8567,36.1936],[-81.8292,36.1688],[-81.8115,36.1115],[-81.7357,36.0676],[-81.8072,35.962],[-81.87,35.9763],[-81.8999,35.9999]]]}},{"type":"Feature","properties":{"county_fips":"37013","name":"Beaufort"},"geometry":{"type":"Polygon","coordinates":[[[-76.5795,35.4852],[-76.584,35.4491],[-76.5221,35.3536],[-76.5905,35.3619],[-76.617,35.3309],[-76.6122,35.2794],[-76.6326,35.2353],[-76.8455,35.2161],[-76.9589,35.301],[-77.1904,35.419],[-77.1671,35.4969],[-77.1762,35.5191],[-77.1271,35.5541],[-77.0846,35.5527],[-77.1742,35.6356],[-77.1698,35.6843],[-77.1939,35.7092],[-77.1708,35.7165],[-77.1638,35.7395],[-76.9858,35.6588],[-76.8473,35.72],[-76.8446,35.7057],[-76.6375,35.7052],[-76.6019,35.6699],[-76.6061,35.6467],[-76.5776,35.6112],[-76.4678,35.5565],[-76.4912,35.5209],[-76.6041,35.5124],[-76.5795,35.4852]]]}},{"type":"Feature","properties":{"county_fips":"37015","name":"Bertie"},"geometry":{"type":"Polygon","coordinates":[[[-76.8348,35.8829],[-76.8321,35.8546],[-76.8601,35.825],[-76.8952,35.8131],[-76.893,35.864],[-76.9232,35.8983],[-77.0349,35.8574],[-77.0453,35.8752],[-77.0221,35.8909],[-77.044,35.9434],[-77.094,35.9248],[-77.1238,35.9261],[-77.1309,35.9408],[-77.1959,35.9368],[-77.1903,35.9737],[-77.1964,35.9928],[-77.2129,35.9915],[-77.2065,36.0071],[-77.3271,36.068],[-77.3132,36.0892],[-77.2303,36.105],[-77.2515,36.1151],[-77.2397,36.1203],[-77.2656,36.1398],[-77.2631,36.1587],[-77.2983,36.1723],[-77.2982,36.2077],[-77.2286,36.2144],[-77.2085,36.2466],[-76.7066,36.2438],[-76.733,36.2126],[-76.7373,36.1586],[-76.7089,36.069],[-76.6825,36.0309],[-76.6062,35.9781],[-76.6875,35.9507],[-76.7511,35.8675],[-76.781,35.8639],[-76.8348,35.8829]]]}},{"type":"Feature","properties":{"county_fips":"37017","name":"Bladen"},"geometry":{"type":"Polygon","coordinates":[[[-78.4947,34.8562],[-78.3909,34.7497],[-78.3734,34.6992],[-78.3251,34.6692],[-78.3053,34.6027],[-78.2547,34.5686],[-78.2726,34.5377],[-78.2553,34.5081],[-78.1765,34.4654],[-78.2561,34.3995],[-78.3351,34.3676],[-78.4453,34.3774],[-78.6468,34.4607],[-78.6593,34.4536],[-78.6676,34.4696],[-78.8259,34.4617],[-78.8581,34.4744],[-78.8694,34.4871],[-78.8444,34.5081],[-78.8627,34.5622],[-78.836,34.5934],[-78.8057,34.6892],[-78.8542,34.7355],[-78.902,34.8353],[-78.8262,34.8507],[-78.4947,34.8562]]]}},{"type":"Feature","properties":{"county_fips":"37019","name":"Brunswick"},"geometry":{"type":"Polygon","coordinates":[[[-77.9311,34.0589],[-77.9485,33.9713],[-77.897,33.7868],[-77.9293,33.758],[-77.9838,33.7587],[-78.0666,33.848],[-78.1454,33.8627],[-78.3412,33.8553],[-78.4993,33.8129],[-78.6509,33.945],[-78.6484,33.9655],[-78.6241,33.9733],[-78.6406,34.0103],[-78.5908,34.0272],[-78.5571,34.0618],[-78.545,34.146],[-78.5036,34.1692],[-78.4229,34.1395],[-78.3668,34.1888],[-78.3743,34.2049],[-78.2546,34.2163],[-78.1535,34.3656],[-78.1215,34.3683],[-78.0791,34.3542],[-78.0778,34.3385],[-78.0591,34.3451],[-78.026,34.318],[-78.0087,34.3226],[-78.0159,34.2903],[-77.9902,34.2817],[-78.002,34.2731],[-77.9597,34.2376],[-77.9311,34.0589]]]}},{"type":"Feature","properties":{"county_fips":"37021","name":"Buncombe"},"geometry":{"type":"Polygon","coordinates":[[[-82.5469,35.4252],[-82.5488,35.4443],[-82.5706,35.431],[-82.6217,35.4357],[-82.6731,35.4595],[-82.7451,35.423],[-82.7817,35.4395],[-82.7996,35.471],[-82.7659,35.5676],[-82.8113,35.6271],[-82.8517,35.6173],[-82.8853,35.6771],[-82.8487,35.7018],[-82.8049,35.6861],[-82.731,35.7224],[-82.714,35.7177],[-82.7121,35.733],[-82.6696,35.7258],[-82.6777,35.7346],[-82.5147,35.8032],[-82.362,35.8212],[-82.3383,35.8017],[-82.3345,35.7486],[-82.2757,35.7139],[-82.295,35.6841],[-82.2648,35.6145],[-82.291,35.5913],[-82.169,35.5278],[-82.2332,35.5194],[-82.2243,35.4983],[-82.2514,35.4607],[-82.3334,35.5002],[-82.3693,35.4855],[-82.3631,35.461],[-82.4176,35.4745],[-82.4706,35.4452],[-82.5349,35.4444],[-82.5297,35.4244],[-82.5469,35.4252]]]}},{"type":"Feature","properties":{"county_fips":"37023","name":"Burke"},"geometry":{"type":"Polygon","coordinates":[[[-81.8999,35.9999],[-81.7775,35.9474],[-81.7762,35.9271],[-81.7525,35.9244],[-81.7102,35.8752],[-81.6008,35.8251],[-81.556,35.7775],[-81.4464,35.7853],[-81.3986,35.7584],[-81.3638,35.7678],[-81.5376,35.5642],[-81.649,35.5616],[-81.7534,35.6136],[-81.8241,35.575],[-81.8694,35.7196],[-81.9869,35.8069],[-81.9205,35.8471],[-81.9067,35.8834],[-81.9432,35.9601],[-81.8999,35.9999]]]}},{"type":"Feature","properties":{"county_fips":"37025","name":"Cabarrus"},"geometry":{"type":"Polygon","coordinates":[[[-80.2954,35.5029],[-80.505,35.185],[-80.6665,35.2679],[-80.6931,35.3464],[-80.7664,35.4015],[-80.7522,35.4141],[-80.7871,35.4949],[-80.7842,35.506],[-80.2954,35.5029]]]}},{"type":"Feature","properties":{"county_fips":"37027","name":"Caldwell"},"geometry":{"type":"Polygon","coordinates":[[[-81.344,35.8246],[-81.3318,35.8007],[-81.3539,35.7689],[-81.3822,35.7572],[-81.446,35.7852],[-81.5541,35.7769],[-81.6008,35.8251],[-81.7102,35.8752],[-81.7525,35.9244],[-81.7762,35.9271],[-81.7775,35.9474],[-81.8088,35.9583],[-81.7357,36.0676],[-81.8105,36.1115],[-81.5455,36.1175],[-81.5165,36.0975],[-81.454,36.0905],[-81.4448,36.0721],[-81.4074,36.0719],[-81.3964,36.0408],[-81.3808,36.0444],[-81.3365,36.0106],[-81.344,35.8246]]]}},{"type":"Feature","properties":{"county_fips":"37029","name":"Camden"},"geometry":{"type":"Polygon","coordinates":[[[-76.3133,36.5505],[-76.1585,36.4253],[-76.1575,36.3982],[-76.1144,36.3576],[-76.0739,36.3461],[-76.0519,36.3603],[-76.0317,36.3386],[-76.0175,36.3451],[-75.9997,36.3112],[-75.9731,36.3098],[-75.9487,36.2857],[-75.9632,36.2585],[-75.8895,36.1675],[-75.9063,36.0859],[-76.0224,36.0867],[-76.0294,36.1588],[-76.0676,36.2153],[-76.0983,36.2276],[-76.1376,36.2733],[-76.2171,36.2988],[-76.1813,36.3219],[-76.216,36.3277],[-76.2313,36.3721],[-76.2572,36.3635],[-76.2589,36.3843],[-76.2915,36.3866],[-76.3222,36.4275],[-76.3458,36.4215],[-76.4373,36.4678],[-76.542,36.5507],[-76.3133,36.5505]]]}},{"type":"Feature","properties":{"county_fips":"37031","name":"Carteret"},"geometry":{"type":"Polygon","coordinates":[[[-76.439,34.6403],[-76.4832,34.5564],[-76.5316,34.5317],[-76.5837,34.5526],[-76.6147,34.6183],[-76.7298,34.6472],[-76.951,34.6252],[-77.1172,34.5844],[-77.1132,34.651],[-77.0961,34.6712],[-77.1135,34.6805],[-77.106,34.7103],[-77.1256,34.7567],[-77.1579,34.766],[-77.1678,34.791],[-77.0907,34.7993],[-77.085,34.8111],[-76.9544,34.8091],[-76.9548,34.8245],[-76.8832,34.8449],[-76.758,34.8463],[-76.693,34.8692],[-76.6526,34.9376],[-76.7116,34.9818],[-76.3041,35.2015],[-76.0658,35.1249],[-76.0066,35.0539],[-76.0069,35.006],[-76.1246,34.9331],[-76.3406,34.7513],[-76.439,34.6403]]]}},{"type":"Feature","properties":{"county_fips":"37033","name":"Caswell"},"geometry":{"type":"Polygon","coordinates":[[[-79.154,36.2419],[-79.5319,36.2497],[-79.5136,36.5409],[-79.1383,36.542],[-79.154,36.2419]]]}},{"type":"Feature","properties":{"county_fips":"37035","name":"Catawba"},"geometry":{"type":"Polygon","coordinates":[[[-81.3539,35.7689],[-81.3455,35.7944],[-81.1496,35.829],[-81.1284,35.7894],[-81.0679,35.7381],[-81.0629,35.7119],[-81.0032,35.7092],[-80.9252,35.6199],[-80.9433,35.6063],[-80.9335,35.5913],[-80.9533,35.5786],[-80.96,35.547],[-81.5353,35.5684],[-81.3539,35.7689]]]}},{"type":"Feature","properties":{"county_fips":"37037","name":"Chatham"},"geometry":{"type":"Polygon","coordinates":[[[-79.2675,35.5328],[-79.2993,35.5534],[-79.3239,35.5438],[-79.3121,35.5305],[-79.3501,35.518],[-79.5558,35.515],[-79.5424,35.8433],[-79.2373,35.8441],[-79.2495,35.8768],[-79.082,35.8608],[-78.9061,35.8681],[-78.995,35.6102],[-78.9161,35.5841],[-78.9696,35.5217],[-79.024,35.5484],[-79.0691,35.6093],[-79.1171,35.6282],[-79.2009,35.5767],[-79.1999,35.5586],[-79.2245,35.5508],[-79.2189,35.5661],[-79.2411,35.5705],[-79.2675,35.5328]]]}},{"type":"Feature","properties":{"county_fips":"37039","name":"Cherokee"},"geometry":{"type":"Polygon","coordinates":[[[-84.2902,35.2254],[-84.2275,35.2679],[-84.1885,35.2401],[-84.1271,35.2408],[-84.0291,35.2922],[-84.0029,35.235],[-83.9672,35.2178],[-83.8451,35.2552],[-83.7568,35.2425],[-83.7086,35.2576],[-83.6901,35.2375],[-83.7288,35.2009],[-83.7119,35.1904],[-83.7381,35.156],[-83.8571,35.1371],[-83.9077,35.0782],[-83.964,35.0481],[-83.9565,35.0263],[-84.0051,34.9872],[-84.3218,34.9884],[-84.2902,35.2254]]]}},{"type":"Feature","properties":{"county_fips":"37041","name":"Chowan"},"geometry":{"type":"Polygon","coordinates":[[[-76.6895,36.271],[-76.6966,36.2961],[-76.6699,36.3153],[-76.6516,36.3106],[-76.6393,36.3298],[-76.5966,36.3233],[-76.5596,36.3511],[-76.5682,36.2742],[-76.5901,36.2389],[-76.5727,36.1105],[-76.4039,36.0741],[-76.3968,36.0264],[-76.5119,35.9807],[-76.6176,35.9843],[-76.6888,36.0382],[-76.7336,36.1378],[-76.733,36.2126],[-76.6895,36.271]]]}},{"type":"Feature","properties":{"county_fips":"37043","name":"Clay"},"geometry":{"type":"Polygon","coordinates":[[[-83.7527,35.1608],[-83.7267,35.1454],[-83.6589,35.1601],[-83.6451,35.1452],[-83.6549,35.1358],[-83.6402,35.1387],[-83.6351,35.1212],[-83.6191,35.1284],[-83.6183,35.1068],[-83.5669,35.071],[-83.5584,35.0391],[-83.5213,35.0183],[-83.521,34.9968],[-83.4829,34.9933],[-84.0051,34.9872],[-83.9565,35.0263],[-83.964,35.0481],[-83.9077,35.0782],[-83.8655,35.1273],[-83.7527,35.1608]]]}},{"type":"Feature","properties":{"county_fips":"37045","name":"Cleveland"},"geometry":{"type":"Polygon","coordinates":[[[-81.7029,35.3573],[-81.6927,35.583],[-81.649,35.5616],[-81.5962,35.5713],[-81.5154,35.5583],[-81.513,35.5233],[-81.4586,35.4233],[-81.3989,35.3531],[-81.3567,35.3306],[-81.3666,35.3151],[-81.3555,35.2802],[-81.3217,35.2604],[-81.328,35.1635],[-81.7681,35.1806],[-81.7029,35.3573]]]}},{"type":"Feature","properties":{"county_fips":"37047","name":"Columbus"},"geometry":{"type":"Polygon","coordinates":[[[-78.4453,34.3774],[-78.3351,34.3676],[-78.2561,34.3995],[-78.2025,34.3533],[-78.1622,34.3572],[-78.2546,34.2163],[-78.3743,34.2049],[-78.3668,34.1888],[-78.4229,34.1395],[-78.5036,34.1692],[-78.545,34.146],[-78.5571,34.0618],[-78.5908,34.0272],[-78.6406,34.0103],[-78.6241,33.9733],[-78.6484,33.9655],[-78.6503,33.9444],[-79.0712,34.2993],[-79.0385,34.3131],[-79.0271,34.3531],[-79.0091,34.3528],[-79.0116,34.3809],[-78.9697,34.3952],[-78.9598,34.443],[-78.9069,34.4558],[-78.869,34.4848],[-78.8259,34.4617],[-78.6484,34.4609],[-78.4453,34.3774]]]}},{"type":"Feature","properties":{"county_fips":"37049","name":"Craven"},"geometry":{"type":"Polygon","coordinates":[[[-77.2943,35.3791],[-77.2472,35.3547],[-77.2271,35.3998],[-77.2016,35.3987],[-77.1891,35.4184],[-76.9589,35.301],[-76.8959,35.2539],[-76.9595,35.2028],[-76.9702,35.1621],[-76.9876,35.1546],[-76.9751,35.1332],[-76.9309,35.1168],[-76.9362,35.0617],[-76.9673,35.0407],[-76.957,35.0258],[-76.9013,34.9841],[-76.8148,34.9516],[-76.762,34.9538],[-76.7116,34.9818],[-76.6526,34.9376],[-76.6627,34.9119],[-76.693,34.8692],[-76.758,34.8463],[-76.8832,34.8449],[-76.9548,34.8245],[-76.9544,34.8091],[-77.0783,34.8113],[-77.0472,34.8364],[-77.1089,34.8308],[-77.0988,35.0269],[-77.1097,35.0686],[-77.1806,35.0552],[-77.1877,35.0811],[-77.4737,35.229],[-77.4261,35.2575],[-77.4496,35.2995],[-77.4313,35.3298],[-77.3952,35.343],[-77.3524,35.3279],[-77.2943,35.3791]]]}},{"type":"Feature","properties":{"county_fips":"37051","name":"Cumberland"},"geometry":{"type":"Polygon","coordinates":[[[-78.9042,34.8349],[-78.9408,34.9034],[-79.0387,34.9527],[-79.0497,34.992],[-79.0903,35.042],[-79.1128,35.1247],[-79.0972,35.191],[-78.9202,35.2203],[-78.7943,35.2661],[-78.6171,35.2457],[-78.6337,35.2125],[-78.6245,35.2034],[-78.6468,35.1977],[-78.6299,35.1725],[-78.6525,35.121],[-78.6393,35.116],[-78.6723,35.0854],[-78.6476,34.9932],[-78.5445,34.9148],[-78.5469,34.9006],[-78.4947,34.8562],[-78.8263,34.8507],[-78.9042,34.8349]]]}},{"type":"Feature","properties":{"county_fips":"37053","name":"Currituck"},"geometry":{"type":"Polygon","coordinates":[[[-75.7975,36.5509],[-75.7091,36.245],[-75.8131,36.2236],[-75.7769,36.1372],[-75.7677,36.0553],[-75.84,36.0288],[-75.8748,36.0418],[-75.9063,36.0859],[-75.8881,36.1638],[-75.9632,36.2585],[-75.9488,36.2859],[-75.9731,36.3098],[-75.9997,36.3112],[-76.0364,36.3552],[-76.0739,36.3461],[-76.1144,36.3576],[-76.1575,36.3982],[-76.1585,36.4253],[-76.3133,36.5505],[-75.7975,36.5509]]]}},{"type":"Feature","properties":{"county_fips":"37055","name":"Dare"},"geometry":{"type":"Polygon","coordinates":[[[-75.7091,36.245],[-75.4376,35.747],[-75.4178,35.6861],[-75.4001,35.5754],[-75.4261,35.3869],[-75.4709,35.2087],[-75.5192,35.1691],[-75.5902,35.1838],[-75.7366,35.1406],[-75.814,35.5002],[-75.8684,35.5781],[-75.8774,35.6293],[-75.9013,35.669],[-76.0275,35.6688],[-76.0177,35.8654],[-75.9732,35.9766],[-75.7647,36.0601],[-75.7771,36.1378],[-75.8131,36.2236],[-75.7091,36.245]]]}},{"type":"Feature","properties":{"county_fips":"37057","name":"Davidson"},"geometry":{"type":"Polygon","coordinates":[[[-80.3303,35.9966],[-80.2138,35.9967],[-80.2137,36.0268],[-80.0432,36.0108],[-80.0668,35.5057],[-80.1833,35.5041],[-80.2098,35.5523],[-80.2089,35.5813],[-80.3306,35.6788],[-80.333,35.7194],[-80.4555,35.7359],[-80.4508,35.7671],[-80.4767,35.7891],[-80.4648,35.8066],[-80.4876,35.8332],[-80.4764,35.8438],[-80.4626,35.827],[-80.4317,35.8284],[-80.4207,35.8527],[-80.3889,35.8446],[-80.39,35.8683],[-80.4166,35.8811],[-80.3651,35.8937],[-80.3746,35.9548],[-80.3943,35.9728],[-80.3303,35.9966]]]}},{"type":"Feature","properties":{"county_fips":"37059","name":"Davie"},"geometry":{"type":"Polygon","coordinates":[[[-80.4884,36.043],[-80.463,36.0623],[-80.4181,36.016],[-80.4214,35.9876],[-80.375,35.9559],[-80.3679,35.8885],[-80.4166,35.8811],[-80.39,35.8683],[-80.3893,35.8441],[-80.4207,35.8527],[-80.4317,35.8284],[-80.4626,35.827],[-80.4764,35.8438],[-80.4874,35.8336],[-80.4648,35.8066],[-80.4767,35.7891],[-80.4508,35.7671],[-80.4589,35.7428],[-80.4783,35.7748],[-80.4872,35.7662],[-80.4966,35.7827],[-80.5329,35.7852],[-80.6315,35.8456],[-80.6713,35.8465],[-80.6917,35.8635],[-80.7076,35.8522],[-80.6932,36.0513],[-80.4884,36.043]]]}},{"type":"Feature","properties":{"county_fips":"37061","name":"Duplin"},"geometry":{"type":"Polygon","coordinates":[[[-77.981,34.7139],[-78.0161,34.7326],[-78.1352,34.7102],[-78.1986,34.7416],[-78.1471,34.9025],[-78.1598,35.0798],[-78.1718,35.0935],[-78.1634,35.1897],[-78.0774,35.1751],[-78.0206,35.194],[-77.9701,35.1659],[-77.9257,35.1729],[-77.8922,35.1463],[-77.8888,35.16],[-77.8343,35.1779],[-77.7692,35.1456],[-77.7496,35.1086],[-77.746,35.0223],[-77.6748,34.9739],[-77.6534,34.9405],[-77.6801,34.7206],[-77.981,34.7139]]]}},{"type":"Feature","properties":{"county_fips":"37063","name":"Durham"},"geometry":{"type":"Polygon","coordinates":[[[-78.83,35.867],[-79.0163,35.8632],[-78.9506,36.2393],[-78.8023,36.2358],[-78.8075,36.0874],[-78.7513,36.0708],[-78.7536,36.0314],[-78.6993,36.0114],[-78.717,35.9613],[-78.7591,35.9184],[-78.8068,35.9229],[-78.83,35.867]]]}},{"type":"Feature","properties":{"county_fips":"37065","name":"Edgecombe"},"geometry":{"type":"Polygon","coordinates":[[[-77.6651,35.6749],[-77.7184,35.7288],[-77.7513,35.8278],[-77.8284,35.8672],[-77.698,36.1531],[-77.6438,36.1381],[-77.6265,36.1114],[-77.5408,36.0962],[-77.5267,36.0376],[-77.4749,36.0378],[-77.428,36.0053],[-77.4026,36.005],[-77.3424,35.9053],[-77.3504,35.8192],[-77.3902,35.8331],[-77.4247,35.8057],[-77.4723,35.8011],[-77.6651,35.6749]]]}},{"type":"Feature","properties":{"county_fips":"37067","name":"Forsyth"},"geometry":{"type":"Polygon","coordinates":[[[-80.3303,35.9966],[-80.3943,35.9728],[-80.4218,35.988],[-80.4181,36.016],[-80.4626,36.0621],[-80.4877,36.0431],[-80.5066,36.0539],[-80.5073,36.1078],[-80.439,36.1378],[-80.4463,36.2077],[-80.4322,36.2176],[-80.4519,36.2615],[-80.0351,36.2572],[-80.0432,36.0108],[-80.2137,36.0268],[-80.2173,35.9967],[-80.3303,35.9966]]]}},{"type":"Feature","properties":{"county_fips":"37069","name":"Franklin"},"geometry":{"type":"Polygon","coordinates":[[[-78.1101,36.2102],[-78.0305,36.2145],[-78.0066,36.2026],[-78.256,35.8181],[-78.278,35.8673],[-78.3071,35.8967],[-78.3504,35.9095],[-78.3533,35.9311],[-78.3943,35.9369],[-78.4269,35.975],[-78.5464,36.0218],[-78.5448,36.0808],[-78.4928,36.1839],[-78.4579,36.1637],[-78.4215,36.1644],[-78.3781,36.2351],[-78.3381,36.2344],[-78.307,36.2662],[-78.1297,36.2396],[-78.1101,36.2102]]]}},{"type":"Feature","properties":{"county_fips":"37071","name":"Gaston"},"geometry":{"type":"Polygon","coordinates":[[[-81.0095,35.1531],[-81.328,35.1635],[-81.3217,35.2604],[-81.3555,35.2802],[-81.3666,35.3151],[-81.3567,35.3306],[-81.3989,35.3531],[-81.4556,35.4198],[-80.9549,35.4001],[-80.9861,35.3806],[-80.9837,35.3684],[-80.9602,35.3754],[-80.9232,35.3595],[-80.9839,35.3413],[-81.011,35.2782],[-81.0095,35.1531]]]}},{"type":"Feature","properties":{"county_fips":"37073","name":"Gates"},"geometry":{"type":"Polygon","coordinates":[[[-76.7783,36.362],[-76.9432,36.4095],[-76.9506,36.4708],[-76.9344,36.4713],[-76.9031,36.5191],[-76.9249,36.5303],[-76.9169,36.5513],[-76.542,36.5507],[-76.4913,36.5107],[-76.4914,36.4686],[-76.4537,36.3781],[-76.5569,36.3552],[-76.5966,36.3233],[-76.6393,36.3298],[-76.6884,36.299],[-76.7783,36.362]]]}},{"type":"Feature","properties":{"county_fips":"37075","name":"Graham"},"geometry":{"type":"Polygon","coordinates":[[[-83.9611,35.4641],[-83.9357,35.4484],[-83.9083,35.4665],[-83.8659,35.4483],[-83.8081,35.444],[-83.8008,35.4558],[-83.6522,35.4265],[-83.6424,35.4436],[-83.6108,35.427],[-83.5869,35.4351],[-83.5824,35.4096],[-83.6205,35.3455],[-83.6906,35.3172],[-83.6801,35.2795],[-83.7027,35.2485],[-83.8451,35.2552],[-83.9592,35.2169],[-84.0028,35.2348],[-84.0292,35.2916],[-84.0384,35.3509],[-84.0074,35.3716],[-84.0235,35.4114],[-83.9611,35.4641]]]}},{"type":"Feature","properties":{"county_fips":"37077","name":"Granville"},"geometry":{"type":"Polygon","coordinates":[[[-78.4966,36.1752],[-78.5448,36.0808],[-78.5464,36.0218],[-78.6832,36.0745],[-78.7834,36.0699],[-78.8075,36.0873],[-78.7963,36.5417],[-78.4535,36.5403],[-78.4977,36.5147],[-78.5112,36.4548],[-78.5083,36.183],[-78.4966,36.1752]]]}},{"type":"Feature","properties":{"county_fips":"37079","name":"Greene"},"geometry":{"type":"Polygon","coordinates":[[[-77.5664,35.383],[-77.6747,35.3476],[-77.6975,35.3771],[-77.8062,35.3688],[-77.8049,35.4062],[-77.8267,35.4241],[-77.8225,35.5854],[-77.689,35.6496],[-77.6104,35.5676],[-77.5578,35.5319],[-77.5034,35.518],[-77.5116,35.497],[-77.4755,35.4267],[-77.4842,35.4136],[-77.5283,35.4143],[-77.5664,35.383]]]}},{"type":"Feature","properties":{"county_fips":"37081","name":"Guilford"},"geometry":{"type":"Polygon","coordinates":[[[-79.5417,35.8999],[-80.0469,35.9207],[-80.0351,36.2572],[-79.5324,36.2415],[-79.5417,35.8999]]]}},{"type":"Feature","properties":{"county_fips":"37083","name":"Halifax"},"geometry":{"type":"Polygon","coordinates":[[[-77.3769,36.245],[-77.3836,36.2082],[-77.2634,36.1589],[-77.2656,36.1398],[-77.2397,36.1203],[-77.2515,36.1151],[-77.2301,36.1059],[-77.3139,36.0888],[-77.4026,36.005],[-77.428,36.0053],[-77.4749,36.0378],[-77.5267,36.0376],[-77.5401,36.0608],[-77.5254,36.0692],[-77.5334,36.0911],[-77.6265,36.1114],[-77.6785,36.1544],[-77.7213,36.1338],[-77.7501,36.1575],[-77.8081,36.1382],[-77.8872,36.1438],[-77.9227,36.1663],[-77.9239,36.1889],[-77.9512,36.1806],[-77.9729,36.1943],[-77.9782,36.1753],[-78.0066,36.2026],[-77.9424,36.2985],[-77.912,36.3824],[-77.92,36.4365],[-77.8924,36.5121],[-77.7679,36.48],[-77.6446,36.4806],[-77.626,36.4457],[-77.5495,36.4121],[-77.5476,36.3725],[-77.5856,36.3373],[-77.5714,36.3141],[-77.5421,36.3032],[-77.4417,36.3244],[-77.4094,36.2635],[-77.3769,36.245]]]}},{"type":"Feature","properties":{"county_fips":"37085","name":"Harnett"},"geometry":{"type":"Polygon","coordinates":[[[-78.7943,35.2661],[-78.9202,35.2203],[-79.0963,35.192],[-79.223,35.2681],[-78.9161,35.5841],[-78.6895,35.5159],[-78.5329,35.3426],[-78.5361,35.3187],[-78.5835,35.2968],[-78.5846,35.2733],[-78.6171,35.2457],[-78.7943,35.2661]]]}},{"type":"Feature","properties":{"county_fips":"37087","name":"Haywood"},"geometry":{"type":"Polygon","coordinates":[[[-82.8113,35.6271],[-82.7659,35.5676],[-82.7996,35.471],[-82.7817,35.4395],[-82.7452,35.4235],[-82.7456,35.4073],[-82.7876,35.3811],[-82.8319,35.3184],[-82.9206,35.292],[-82.9647,35.3153],[-82.9902,35.3674],[-83.0437,35.3944],[-83.0444,35.4151],[-83.0914,35.4575],[-83.1377,35.4641],[-83.1386,35.4912],[-83.1859,35.5118],[-83.1558,35.5526],[-83.1835,35.5863],[-83.1771,35.632],[-83.2024,35.6445],[-83.182,35.6713],[-83.2543,35.6956],[-83.2553,35.7157],[-83.1864,35.7299],[-83.1596,35.7647],[-83.0785,35.7897],[-82.996,35.7731],[-82.9602,35.7907],[-82.9572,35.7468],[-82.9176,35.7448],[-82.9011,35.6849],[-82.8464,35.6144],[-82.8113,35.6271]]]}},{"type":"Feature","properties":{"county_fips":"37089","name":"Henderson"},"geometry":{"type":"Polygon","coordinates":[[[-82.5298,35.4228],[-82.5349,35.4444],[-82.4706,35.4452],[-82.4176,35.4745],[-82.3631,35.461],[-82.3693,35.4855],[-82.3334,35.5002],[-82.2658,35.4678],[-82.2805,35.4428],[-82.2614,35.3886],[-82.3461,35.2862],[-82.3538,35.191],[-82.3726,35.1808],[-82.3938,35.2152],[-82.4399,35.1657],[-82.4573,35.1639],[-82.4607,35.1779],[-82.5277,35.1557],[-82.5459,35.1642],[-82.5727,35.1442],[-82.5854,35.1518],[-82.6192,35.3037],[-82.7451,35.423],[-82.6731,35.4595],[-82.6217,35.4357],[-82.5706,35.431],[-82.5488,35.4443],[-82.5439,35.4235],[-82.5298,35.4228]]]}},{"type":"Feature","properties":{"county_fips":"37091","name":"Hertford"},"geometry":{"type":"Polygon","coordinates":[[[-76.9143,36.5436],[-76.925,36.5307],[-76.904,36.5214],[-76.9071,36.5093],[-76.9344,36.4713],[-76.9506,36.4708],[-76.9432,36.4095],[-76.7766,36.3611],[-76.6975,36.2978],[-76.6905,36.2678],[-76.7066,36.2438],[-77.2085,36.2466],[-77.1313,36.4378],[-77.137,36.4559],[-77.1123,36.4777],[-77.0663,36.4832],[-77.0834,36.5132],[-77.1485,36.5251],[-77.1644,36.5463],[-76.9143,36.5436]]]}},{"type":"Feature","properties":{"county_fips":"37093","name":"Hoke"},"geometry":{"type":"Polygon","coordinates":[[[-79.3355,35.1616],[-79.2429,35.2138],[-79.1428,35.169],[-79.0976,35.1742],[-79.1129,35.1257],[-79.0903,35.042],[-79.0356,34.9552],[-79.1914,34.8337],[-79.3479,34.8386],[-79.3369,34.8538],[-79.3531,34.9443],[-79.4588,35.0436],[-79.3355,35.1616]]]}},{"type":"Feature","properties":{"county_fips":"37095","name":"Hyde"},"geometry":{"type":"Polygon","coordinates":[[[-76.0967,35.6696],[-76.0611,35.6752],[-76.0356,35.6615],[-75.9013,35.669],[-75.8684,35.5781],[-75.814,35.5002],[-75.7366,35.1406],[-75.8979,35.0771],[-76.003,35.0064],[-76.0066,35.0539],[-76.0658,35.1249],[-76.3041,35.2015],[-76.4454,35.3293],[-76.5187,35.348],[-76.584,35.4491],[-76.5795,35.4852],[-76.6041,35.5124],[-76.4912,35.5209],[-76.4678,35.5565],[-76.5776,35.6112],[-76.6061,35.6467],[-76.6019,35.6699],[-76.6375,35.7052],[-76.2692,35.6908],[-76.2979,35.6089],[-76.2157,35.598],[-76.1695,35.6725],[-76.1726,35.6969],[-76.0967,35.6696]]]}},{"type":"Feature","properties":{"county_fips":"37097","name":"Iredell"},"geometry":{"type":"Polygon","coordinates":[[[-80.9067,35.5148],[-80.9473,35.4885],[-80.9604,35.4962],[-80.9565,35.5317],[-80.9397,35.5292],[-80.9597,35.546],[-80.9564,35.5718],[-80.9255,35.6209],[-81.0032,35.7092],[-81.0626,35.7116],[-81.0679,35.7381],[-81.1095,35.7766],[-81.0413,35.8579],[-81.0055,35.9583],[-81.0034,35.9967],[-81.0288,36.0457],[-80.9757,36.0588],[-80.6932,36.0513],[-80.7078,35.8529],[-80.7716,35.6722],[-80.7372,35.5058],[-80.9067,35.5148]]]}},{"type":"Feature","properties":{"county_fips":"37099","name":"Jackson"},"geometry":{"type":"Polygon","coordinates":[[[-83.3457,35.4734],[-83.3179,35.4653],[-83.2617,35.5146],[-83.2162,35.526],[-83.1386,35.4912],[-83.1377,35.4641],[-83.0914,35.4575],[-83.0444,35.4151],[-83.0437,35.3944],[-82.9902,35.3674],[-82.9647,35.3153],[-82.9274,35.3029],[-82.9284,35.2349],[-82.9966,35.1636],[-82.9765,35.1333],[-83.0569,35.0539],[-83.0085,35.0274],[-83.1086,35.0014],[-83.1311,35.0393],[-83.1712,35.0605],[-83.1433,35.0779],[-83.1475,35.0934],[-83.2238,35.1574],[-83.2243,35.2386],[-83.2819,35.229],[-83.3159,35.2648],[-83.3211,35.3119],[-83.3406,35.3331],[-83.34,35.3955],[-83.3638,35.4269],[-83.3457,35.4734]]]}},{"type":"Feature","properties":{"county_fips":"37101","name":"Johnston"},"geometry":{"type":"Polygon","coordinates":[[[-78.2897,35.3151],[-78.3066,35.2876],[-78.4117,35.2547],[-78.4919,35.2633],[-78.5383,35.3164],[-78.5331,35.343],[-78.5677,35.3677],[-78.6269,35.458],[-78.6606,35.4962],[-78.7089,35.5195],[-78.4692,35.7066],[-78.256,35.8181],[-78.2329,35.7514],[-78.1612,35.7127],[-78.1256,35.6031],[-78.0648,35.5853],[-78.1549,35.4178],[-78.1532,35.3507],[-78.2897,35.3151]]]}},{"type":"Feature","properties":{"county_fips":"37103","name":"Jones"},"geometry":{"type":"Polygon","coordinates":[[[-77.1877,35.0811],[-77.1806,35.0552],[-77.1097,35.0686],[-77.0988,35.0269],[-77.1089,34.8308],[-77.0472,34.8364],[-77.0906,34.7994],[-77.1615,34.7952],[-77.1727,34.7806],[-77.1963,34.8103],[-77.1813,34.8362],[-77.2019,34.8345],[-77.222,34.887],[-77.2684,34.926],[-77.332,34.9391],[-77.3631,34.9258],[-77.3668,34.9087],[-77.5028,34.9696],[-77.639,34.9845],[-77.6748,34.9739],[-77.731,35.0081],[-77.6013,35.0714],[-77.5075,35.1728],[-77.5272,35.243],[-77.1877,35.0811]]]}},{"type":"Feature","properties":{"county_fips":"37105","name":"Lee"},"geometry":{"type":"Polygon","coordinates":[[[-79.1836,35.3072],[-79.2732,35.3521],[-79.2896,35.4004],[-79.3297,35.4234],[-79.3598,35.4697],[-79.3359,35.498],[-79.3514,35.5158],[-79.3121,35.5305],[-79.3239,35.5438],[-79.2993,35.5534],[-79.2675,35.5328],[-79.2427,35.5703],[-79.2193,35.5665],[-79.2245,35.5508],[-79.1999,35.5586],[-79.2011,35.5765],[-79.1425,35.6227],[-79.1001,35.6236],[-79.0525,35.5961],[-79.024,35.5484],[-78.9696,35.5217],[-79.1836,35.3072]]]}},{"type":"Feature","properties":{"county_fips":"37107","name":"Lenoir"},"geometry":{"type":"Polygon","coordinates":[[[-77.731,35.0081],[-77.746,35.0223],[-77.7496,35.1086],[-77.7692,35.1456],[-77.8342,35.1778],[-77.8242,35.3438],[-77.8062,35.3688],[-77.6975,35.3771],[-77.6801,35.3477],[-77.6379,35.3542],[-77.6141,35.3777],[-77.5891,35.3738],[-77.5342,35.3981],[-77.5283,35.4143],[-77.4842,35.4136],[-77.474,35.4267],[-77.4482,35.3715],[-77.4259,35.3493],[-77.4081,35.3533],[-77.3931,35.3469],[-77.391,35.3395],[-77.4313,35.3298],[-77.4491,35.3018],[-77.4262,35.2624],[-77.4328,35.25],[-77.4737,35.229],[-77.5272,35.243],[-77.5075,35.1728],[-77.598,35.0749],[-77.731,35.0081]]]}},{"type":"Feature","properties":{"county_fips":"37109","name":"Lincoln"},"geometry":{"type":"Polygon","coordinates":[[[-80.96,35.547],[-80.9397,35.5292],[-80.9563,35.5319],[-80.9635,35.506],[-80.9424,35.4564],[-80.9586,35.4329],[-80.9549,35.4001],[-81.4556,35.4198],[-81.513,35.5233],[-81.5092,35.5504],[-81.5375,35.5644],[-80.96,35.547]]]}},{"type":"Feature","properties":{"county_fips":"37111","name":"McDowell"},"geometry":{"type":"Polygon","coordinates":[[[-82.0398,35.5327],[-82.1505,35.518],[-82.2513,35.5599],[-82.291,35.5913],[-82.2645,35.6177],[-82.295,35.6843],[-82.1934,35.7353],[-82.1605,35.7743],[-82.1619,35.7978],[-82.0994,35.8517],[-82.0486,35.853],[-82.0224,35.885],[-81.9994,35.874],[-81.9803,35.8847],[-81.9822,35.9112],[-81.9544,35.9268],[-81.963,35.9418],[-81.9432,35.9601],[-81.9067,35.8834],[-81.9205,35.8471],[-81.9869,35.8069],[-81.8694,35.7196],[-81.8241,35.575],[-81.8425,35.5423],[-81.9676,35.526],[-82.0027,35.5518],[-82.0398,35.5327]]]}},{"type":"Feature","properties":{"county_fips":"37113","name":"Macon"},"geometry":{"type":"Polygon","coordinates":[[[-83.5208,34.9966],[-83.5213,35.0183],[-83.5584,35.0391],[-83.5669,35.071],[-83.6183,35.1068],[-83.6189,35.1283],[-83.6351,35.1212],[-83.6402,35.1387],[-83.6549,35.1358],[-83.655,35.1582],[-83.7308,35.1484],[-83.7316,35.1784],[-83.7113,35.1957],[-83.7288,35.2009],[-83.6938,35.2287],[-83.7027,35.2485],[-83.6841,35.2764],[-83.4674,35.2978],[-83.4326,35.3252],[-83.3396,35.331],[-83.2933,35.2352],[-83.2243,35.2386],[-83.2238,35.1574],[-83.1477,35.0938],[-83.1433,35.0779],[-83.1713,35.0606],[-83.1311,35.0393],[-83.1086,35.0007],[-83.5208,34.9966]]]}},{"type":"Feature","properties":{"county_fips":"37115","name":"Madison"},"geometry":{"type":"Polygon","coordinates":[[[-82.6777,35.7346],[-82.6696,35.7258],[-82.7121,35.733],[-82.714,35.7177],[-82.731,35.7224],[-82.8049,35.6861],[-82.8487,35.7018],[-82.8843,35.6781],[-82.9011,35.6849],[-82.9176,35.7448],[-82.9572,35.7468],[-82.95,35.7745],[-82.9629,35.7949],[-82.9163,35.8417],[-82.9208,35.8682],[-82.8961,35.8795],[-82.9198,35.9289],[-82.9018,35.927],[-82.8982,35.9452],[-82.8743,35.9528],[-82.8219,35.9218],[-82.8051,35.9271],[-82.7751,35.9718],[-82.7857,35.9778],[-82.7758,36.0011],[-82.6328,36.0659],[-82.5908,36.0336],[-82.6149,36.002],[-82.6107,35.9672],[-82.558,35.9539],[-82.5054,35.9774],[-82.4801,35.9492],[-82.4985,35.9302],[-82.4948,35.9095],[-82.4502,35.898],[-82.4176,35.8594],[-82.4123,35.8147],[-82.5231,35.7983],[-82.6777,35.7346]]]}},{"type":"Feature","properties":{"county_fips":"37117","name":"Martin"},"geometry":{"type":"Polygon","coordinates":[[[-77.3276,36.0714],[-77.2065,36.0071],[-77.2133,35.9925],[-77.1961,35.9924],[-77.1885,35.9575],[-77.2023,35.9474],[-77.1864,35.9311],[-77.1309,35.9408],[-77.1238,35.9261],[-77.0937,35.9248],[-77.044,35.9434],[-77.0221,35.8909],[-77.0453,35.8752],[-77.0356,35.8575],[-76.9255,35.8992],[-76.893,35.864],[-76.9039,35.8238],[-76.8826,35.8119],[-76.8331,35.8522],[-76.8302,35.8859],[-76.7609,35.8635],[-76.7838,35.8488],[-76.7826,35.8243],[-76.8026,35.8052],[-76.7928,35.7901],[-76.8313,35.7307],[-76.9858,35.6588],[-77.215,35.7598],[-77.2598,35.7652],[-77.2552,35.7864],[-77.3504,35.8192],[-77.3424,35.9053],[-77.4084,35.9995],[-77.3276,36.0714]]]}},{"type":"Feature","properties":{"county_fips":"37119","name":"Mecklenburg"},"geometry":{"type":"Polygon","coordinates":[[[-80.8403,35.0017],[-80.9347,35.1073],[-81.0415,35.0447],[-81.0577,35.0619],[-81.0516,35.097],[-81.0324,35.1096],[-81.0476,35.1452],[-81.0058,35.157],[-81.015,35.2687],[-81.0012,35.3049],[-80.9722,35.3506],[-80.923,35.3599],[-80.9602,35.3754],[-80.9764,35.3642],[-80.9868,35.379],[-80.9548,35.3938],[-80.9473,35.4885],[-80.9067,35.5148],[-80.7842,35.506],[-80.7522,35.4141],[-80.7664,35.4015],[-80.6931,35.3464],[-80.6667,35.2682],[-80.5503,35.2084],[-80.7421,35.0557],[-80.8403,35.0017]]]}},{"type":"Feature","properties":{"county_fips":"37121","name":"Mitchell"},"geometry":{"type":"Polygon","coordinates":[[[-82.3554,36.1154],[-82.2898,36.1356],[-82.2451,36.1312],[-82.2219,36.157],[-82.1772,36.1424],[-82.1486,36.1499],[-82.1302,36.1046],[-82.0759,36.0958],[-82.0392,36.0078],[-82.059,35.991],[-82.0486,35.9645],[-81.982,35.9114],[-81.9802,35.8848],[-81.9994,35.874],[-82.0222,35.8851],[-82.048,35.8532],[-82.0983,35.8521],[-82.1212,35.8246],[-82.1483,35.8227],[-82.1452,35.9314],[-82.1697,35.9286],[-82.1977,35.9522],[-82.1859,35.9601],[-82.1976,36.0151],[-82.2521,36.0087],[-82.2514,35.9889],[-82.2997,36.0457],[-82.3124,36.0261],[-82.3382,36.0301],[-82.352,36.0845],[-82.4167,36.0728],[-82.3554,36.1154]]]}},{"type":"Feature","properties":{"county_fips":"37123","name":"Montgomery"},"geometry":{"type":"Polygon","coordinates":[[[-79.9834,35.1585],[-80.0229,35.1372],[-80.0754,35.1431],[-80.0533,35.1786],[-80.0984,35.2581],[-80.0512,35.3715],[-80.0937,35.402],[-80.1099,35.461],[-80.1617,35.4752],[-80.1826,35.5042],[-79.768,35.5115],[-79.7119,35.2756],[-79.698,35.2515],[-79.6723,35.2447],[-79.6576,35.1916],[-79.6143,35.1637],[-79.8513,35.1839],[-79.9834,35.1585]]]}},{"type":"Feature","properties":{"county_fips":"37125","name":"Moore"},"geometry":{"type":"Polygon","coordinates":[[[-79.4588,35.0436],[-79.4992,35.0639],[-79.5762,35.0701],[-79.5734,35.1227],[-79.6576,35.1916],[-79.6723,35.2447],[-79.698,35.2515],[-79.7119,35.2756],[-79.768,35.5115],[-79.3501,35.518],[-79.3359,35.4978],[-79.3598,35.4699],[-79.3297,35.4234],[-79.2896,35.4004],[-79.2657,35.3453],[-79.1836,35.3072],[-79.223,35.2681],[-79.0958,35.1921],[-79.1009,35.1719],[-79.1427,35.169],[-79.2436,35.2138],[-79.3354,35.1616],[-79.4588,35.0436]]]}},{"type":"Feature","properties":{"county_fips":"37127","name":"Nash"},"geometry":{"type":"Polygon","coordinates":[[[-78.1974,35.7278],[-78.2508,35.7735],[-78.2572,35.8135],[-78.0066,36.2026],[-77.9782,36.1753],[-77.9729,36.1943],[-77.9512,36.1806],[-77.9239,36.1889],[-77.9227,36.1663],[-77.8872,36.1438],[-77.8081,36.1382],[-77.7501,36.1575],[-77.7213,36.1338],[-77.698,36.1531],[-77.8447,35.8376],[-77.8739,35.8497],[-78.1974,35.7278]]]}},{"type":"Feature","properties":{"county_fips":"37129","name":"New Hanover"},"geometry":{"type":"Polygon","coordinates":[[[-77.7856,34.1252],[-77.8845,33.9037],[-77.897,33.7868],[-77.9485,33.9713],[-77.9311,34.0589],[-77.9586,34.1738],[-77.9566,34.2345],[-78.002,34.2731],[-77.9902,34.2817],[-78.0159,34.2903],[-78.0062,34.3195],[-78.026,34.318],[-78.0299,34.3318],[-77.9932,34.3368],[-77.978,34.357],[-77.9877,34.3711],[-77.9622,34.3829],[-77.935,34.358],[-77.9165,34.3759],[-77.8917,34.3637],[-77.8105,34.3819],[-77.8127,34.359],[-77.7392,34.2928],[-77.7105,34.298],[-77.6753,34.2531],[-77.723,34.21],[-77.7856,34.1252]]]}},{"type":"Feature","properties":{"county_fips":"37131","name":"Northampton"},"geometry":{"type":"Polygon","coordinates":[[[-77.1705,36.5473],[-77.1485,36.5251],[-77.0834,36.5132],[-77.0663,36.4832],[-77.1123,36.4777],[-77.137,36.4559],[-77.1313,36.4378],[-77.2083,36.2468],[-77.2286,36.2144],[-77.2979,36.2081],[-77.2996,36.1649],[-77.3292,36.1924],[-77.3836,36.2082],[-77.3769,36.245],[-77.4097,36.2638],[-77.4403,36.3236],[-77.5421,36.3032],[-77.5714,36.3141],[-77.5856,36.3373],[-77.5476,36.3725],[-77.5495,36.4121],[-77.626,36.4457],[-77.6445,36.4805],[-77.7679,36.48],[-77.8175,36.5005],[-77.8995,36.5043],[-77.8998,36.5446],[-77.1705,36.5473]]]}},{"type":"Feature","properties":{"county_fips":"37133","name":"Onslow"},"geometry":{"type":"Polygon","coordinates":[[[-77.4845,34.3997],[-77.541,34.4648],[-77.5761,34.4765],[-77.6801,34.7206],[-77.651,34.9233],[-77.6801,34.9711],[-77.639,34.9845],[-77.5028,34.9696],[-77.3668,34.9087],[-77.3631,34.9258],[-77.332,34.9391],[-77.2852,34.9313],[-77.222,34.887],[-77.2018,34.8343],[-77.1813,34.8362],[-77.1961,34.8097],[-77.1535,34.7765],[-77.1579,34.766],[-77.1256,34.7567],[-77.106,34.7103],[-77.1135,34.6805],[-77.0961,34.6712],[-77.1132,34.651],[-77.1172,34.5844],[-77.4845,34.3997]]]}},{"type":"Feature","properties":{"county_fips":"37135","name":"Orange"},"geometry":{"type":"Polygon","coordinates":[[[-79.258,36.2434],[-78.9506,36.2393],[-79.0163,35.8632],[-79.2495,35.8768],[-79.2684,35.9109],[-79.258,36.2434]]]}},{"type":"Feature","properties":{"county_fips":"37137","name":"Pamlico"},"geometry":{"type":"Polygon","coordinates":[[[-76.7806,34.9504],[-76.8277,34.9551],[-76.9251,35.0002],[-76.9673,35.0407],[-76.9362,35.0617],[-76.9309,35.1168],[-76.9873,35.1511],[-76.961,35.2008],[-76.8959,35.2539],[-76.8455,35.2161],[-76.6326,35.2353],[-76.6122,35.2794],[-76.617,35.3309],[-76.5905,35.3619],[-76.4454,35.3293],[-76.3041,35.2015],[-76.7806,34.9504]]]}},{"type":"Feature","properties":{"county_fips":"37139","name":"Pasquotank"},"geometry":{"type":"Polygon","coordinates":[[[-76.3474,36.4222],[-76.3222,36.4275],[-76.2915,36.3866],[-76.2589,36.3843],[-76.2572,36.3635],[-76.2313,36.3721],[-76.216,36.3277],[-76.1813,36.3219],[-76.2171,36.2988],[-76.1376,36.2733],[-76.0983,36.2276],[-76.0676,36.2153],[-76.0294,36.1588],[-76.0226,36.0967],[-76.158,36.0595],[-76.1787,36.1112],[-76.2719,36.1857],[-76.2902,36.2234],[-76.375,36.2588],[-76.4476,36.3637],[-76.4914,36.501],[-76.3474,36.4222]]]}},{"type":"Feature","properties":{"county_fips":"37141","name":"Pender"},"geometry":{"type":"Polygon","coordinates":[[[-77.5761,34.4765],[-77.541,34.4648],[-77.4845,34.3997],[-77.6753,34.2531],[-77.7105,34.298],[-77.7392,34.2928],[-77.8127,34.359],[-77.8047,34.3768],[-77.823,34.3894],[-77.887,34.3642],[-77.9171,34.3757],[-77.935,34.358],[-77.9622,34.3829],[-77.9877,34.3711],[-77.978,34.357],[-77.9932,34.3368],[-78.0433,34.3303],[-78.1367,34.3718],[-78.2025,34.3533],[-78.2561,34.3995],[-78.1765,34.4654],[-78.2524,34.5047],[-78.2725,34.538],[-78.102,34.7256],[-78.0127,34.7326],[-77.981,34.7139],[-77.6801,34.7206],[-77.5761,34.4765]]]}},{"type":"Feature","properties":{"county_fips":"37143","name":"Perquimans"},"geometry":{"type":"Polygon","coordinates":[[[-76.5726,36.2581],[-76.5569,36.3552],[-76.4537,36.3781],[-76.3749,36.2587],[-76.2902,36.2234],[-76.2719,36.1857],[-76.1787,36.1112],[-76.158,36.0595],[-76.3337,36.0199],[-76.3968,36.0264],[-76.4039,36.0741],[-76.5708,36.1079],[-76.5901,36.2389],[-76.5726,36.2581]]]}},{"type":"Feature","properties":{"county_fips":"37145","name":"Person"},"geometry":{"type":"Polygon","coordinates":[[[-79.1383,36.542],[-78.7963,36.5417],[-78.8023,36.2358],[-79.154,36.2419],[-79.1383,36.542]]]}},{"type":"Feature","properties":{"county_fips":"37147","name":"Pitt"},"geometry":{"type":"Polygon","coordinates":[[[-77.4723,35.8011],[-77.4247,35.8057],[-77.3902,35.8331],[-77.2552,35.7864],[-77.2598,35.7652],[-77.1787,35.7394],[-77.1708,35.7165],[-77.1849,35.7205],[-77.1958,35.6998],[-77.1699,35.6846],[-77.1742,35.6356],[-77.0846,35.5526],[-77.1271,35.5541],[-77.1762,35.5191],[-77.1671,35.4969],[-77.1893,35.4166],[-77.2016,35.3987],[-77.2271,35.3998],[-77.2379,35.3615],[-77.2605,35.3517],[-77.2943,35.3791],[-77.3532,35.3274],[-77.4257,35.3492],[-77.4482,35.3715],[-77.5116,35.497],[-77.5034,35.518],[-77.5578,35.5319],[-77.6104,35.5676],[-77.7007,35.6523],[-77.4723,35.8011]]]}},{"type":"Feature","properties":{"county_fips":"37149","name":"Polk"},"geometry":{"type":"Polygon","coordinates":[[[-82.3538,35.191],[-82.3461,35.2862],[-82.3104,35.3147],[-82.2613,35.3932],[-82.2391,35.4026],[-82.1851,35.3966],[-82.1599,35.4093],[-82.1278,35.3963],[-81.9639,35.2495],[-81.9693,35.1872],[-82.3538,35.191]]]}},{"type":"Feature","properties":{"county_fips":"37151","name":"Randolph"},"geometry":{"type":"Polygon","coordinates":[[[-80.0668,35.5057],[-80.0469,35.9207],[-79.5417,35.8999],[-79.5558,35.515],[-80.0668,35.5057]]]}},{"type":"Feature","properties":{"county_fips":"37153","name":"Richmond"},"geometry":{"type":"Polygon","coordinates":[[[-80.0228,35.1372],[-79.9847,35.1582],[-79.8986,35.1617],[-79.8513,35.1839],[-79.6798,35.1774],[-79.6421,35.1577],[-79.6143,35.1637],[-79.5881,35.1381],[-79.5733,35.1225],[-79.5828,35.0841],[-79.5683,35.0648],[-79.4992,35.0639],[-79.4588,35.0436],[-79.5734,34.9922],[-79.5848,34.9454],[-79.5619,34.9104],[-79.6268,34.8519],[-79.614,34.8153],[-79.6346,34.8255],[-79.6929,34.8052],[-79.9274,34.8067],[-79.9005,34.8578],[-79.8487,34.9026],[-79.8723,34.9504],[-79.8648,34.98],[-79.9006,35.0057],[-79.8762,35.0434],[-79.909,35.067],[-79.9265,35.1173],[-79.9983,35.0854],[-80.0677,35.1117],[-80.0757,35.1407],[-80.0228,35.1372]]]}},{"type":"Feature","properties":{"county_fips":"37155","name":"Robeson"},"geometry":{"type":"Polygon","coordinates":[[[-79.0387,34.9527],[-78.9549,34.9133],[-78.8833,34.8121],[-78.8542,34.7355],[-78.8054,34.6866],[-78.836,34.5934],[-78.8627,34.5622],[-78.8463,34.4998],[-78.9069,34.4558],[-78.9598,34.443],[-78.9697,34.3952],[-79.0116,34.3809],[-79.0091,34.3528],[-79.0271,34.3531],[-79.0385,34.3131],[-79.0712,34.2993],[-79.4615,34.6304],[-79.3309,34.774],[-79.3574,34.819],[-79.3488,34.8389],[-79.1914,34.8337],[-79.0387,34.9527]]]}},{"type":"Feature","properties":{"county_fips":"37157","name":"Rockingham"},"geometry":{"type":"Polygon","coordinates":[[[-79.5324,36.2415],[-80.0351,36.2572],[-80.0273,36.5425],[-79.5136,36.5409],[-79.5324,36.2415]]]}},{"type":"Feature","properties":{"county_fips":"37159","name":"Rowan"},"geometry":{"type":"Polygon","coordinates":[[[-80.6917,35.8635],[-80.5704,35.8163],[-80.5085,35.7745],[-80.4783,35.7748],[-80.453,35.7344],[-80.3352,35.7208],[-80.3306,35.6788],[-80.2089,35.5813],[-80.2098,35.5523],[-80.1829,35.5033],[-80.7372,35.5058],[-80.7716,35.6722],[-80.6917,35.8635]]]}},{"type":"Feature","properties":{"county_fips":"37161","name":"Rutherford"},"geometry":{"type":"Polygon","coordinates":[[[-82.0398,35.5327],[-82.0028,35.5518],[-81.9676,35.526],[-81.8425,35.5423],[-81.8221,35.5805],[-81.8,35.5792],[-81.7534,35.6136],[-81.7173,35.6046],[-81.692,35.58],[-81.7029,35.3573],[-81.7681,35.1806],[-81.9693,35.1872],[-81.9688,35.2578],[-82.123,35.3934],[-82.1599,35.4093],[-82.1851,35.3966],[-82.2701,35.4004],[-82.2801,35.445],[-82.2658,35.4678],[-82.2425,35.4678],[-82.2243,35.4983],[-82.2332,35.5194],[-82.0398,35.5327]]]}},{"type":"Feature","properties":{"county_fips":"37163","name":"Sampson"},"geometry":{"type":"Polygon","coordinates":[[[-78.3066,35.2876],[-78.2462,35.226],[-78.1618,35.2043],[-78.1718,35.0935],[-78.1598,35.0798],[-78.1471,34.9025],[-78.1986,34.7416],[-78.1352,34.7102],[-78.114,34.7218],[-78.1135,34.7072],[-78.1565,34.6791],[-78.2544,34.5536],[-78.266,34.5837],[-78.3032,34.6005],[-78.3224,34.6289],[-78.3114,34.6412],[-78.3255,34.6697],[-78.3734,34.6992],[-78.3909,34.7497],[-78.4877,34.8364],[-78.5128,34.8808],[-78.5469,34.9006],[-78.5445,34.9148],[-78.6466,34.9915],[-78.6723,35.0852],[-78.639,35.117],[-78.6525,35.121],[-78.6299,35.1725],[-78.6467,35.1981],[-78.6245,35.2034],[-78.6332,35.2137],[-78.5846,35.2733],[-78.5819,35.2981],[-78.5383,35.3164],[-78.4919,35.2633],[-78.4184,35.2553],[-78.3066,35.2876]]]}},{"type":"Feature","properties":{"county_fips":"37165","name":"Scotland"},"geometry":{"type":"Polygon","coordinates":[[[-79.5667,34.9794],[-79.5734,34.9922],[-79.4584,35.0438],[-79.3531,34.9443],[-79.3369,34.8538],[-79.3577,34.8205],[-79.3308,34.7741],[-79.4615,34.6304],[-79.6929,34.8052],[-79.6346,34.8255],[-79.6256,34.8179],[-79.614,34.8153],[-79.6268,34.8519],[-79.5619,34.9104],[-79.5856,34.9547],[-79.5667,34.9794]]]}},{"type":"Feature","properties":{"county_fips":"37167","name":"Stanly"},"geometry":{"type":"Polygon","coordinates":[[[-80.0928,35.2393],[-80.0533,35.1786],[-80.0754,35.1431],[-80.1145,35.1943],[-80.1355,35.1677],[-80.1573,35.1736],[-80.1617,35.1483],[-80.1978,35.1667],[-80.2247,35.1561],[-80.2543,35.2113],[-80.357,35.1649],[-80.3701,35.1798],[-80.4404,35.1611],[-80.5053,35.1834],[-80.2954,35.5029],[-80.1826,35.5042],[-80.1617,35.4752],[-80.1099,35.461],[-80.0937,35.402],[-80.0512,35.3715],[-80.094,35.2871],[-80.0928,35.2393]]]}},{"type":"Feature","properties":{"county_fips":"37169","name":"Stokes"},"geometry":{"type":"Polygon","coordinates":[[[-80.4403,36.5507],[-80.0273,36.5425],[-80.0351,36.2572],[-80.4519,36.2615],[-80.4403,36.5507]]]}},{"type":"Feature","properties":{"county_fips":"37171","name":"Surry"},"geometry":{"type":"Polygon","coordinates":[[[-80.4527,36.2417],[-80.471,36.261],[-80.5342,36.2585],[-80.5471,36.2853],[-80.5933,36.2698],[-80.6278,36.2879],[-80.6551,36.2521],[-80.6846,36.2688],[-80.7333,36.2672],[-80.7376,36.2804],[-80.7518,36.2634],[-80.7758,36.274],[-80.7965,36.248],[-80.8732,36.2363],[-80.8687,36.3264],[-80.9558,36.3847],[-80.9672,36.402],[-80.9472,36.4191],[-80.9736,36.4535],[-80.9269,36.5012],[-80.9016,36.5618],[-80.73,36.5623],[-80.4403,36.5507],[-80.4527,36.2417]]]}},{"type":"Feature","properties":{"county_fips":"37173","name":"Swain"},"geometry":{"type":"Polygon","coordinates":[[[-83.9117,35.4762],[-83.8798,35.5191],[-83.8205,35.5257],[-83.7714,35.5616],[-83.6401,35.5662],[-83.6083,35.58],[-83.5844,35.5627],[-83.4984,35.5629],[-83.4457,35.6117],[-83.3961,35.6229],[-83.3411,35.6646],[-83.2982,35.6573],[-83.2537,35.6957],[-83.182,35.6713],[-83.2024,35.6445],[-83.1771,35.632],[-83.1835,35.5863],[-83.1558,35.5526],[-83.1836,35.515],[-83.2361,35.5246],[-83.3179,35.4653],[-83.3457,35.4734],[-83.3638,35.4269],[-83.34,35.3955],[-83.3396,35.331],[-83.4326,35.3252],[-83.4676,35.2978],[-83.6817,35.2804],[-83.6906,35.3172],[-83.617,35.3491],[-83.5931,35.377],[-83.5858,35.4348],[-83.6108,35.427],[-83.6424,35.4436],[-83.6522,35.4265],[-83.8008,35.4558],[-83.8084,35.444],[-83.9075,35.4665],[-83.9357,35.4484],[-83.9534,35.4602],[-83.9117,35.4762]]]}},{"type":"Feature","properties":{"county_fips":"37175","name":"Transylvania"},"geometry":{"type":"Polygon","coordinates":[[[-82.7451,35.423],[-82.6192,35.3037],[-82.5785,35.141],[-82.663,35.1181],[-82.6817,35.128],[-82.6976,35.096],[-82.7267,35.0947],[-82.7572,35.0672],[-82.7817,35.0653],[-82.7832,35.0859],[-83.0085,35.0274],[-83.0566,35.0536],[-82.9768,35.1327],[-82.9966,35.1636],[-82.9285,35.2347],[-82.9209,35.292],[-82.8319,35.3184],[-82.7451,35.423]]]}},{"type":"Feature","properties":{"county_fips":"37177","name":"Tyrrell"},"geometry":{"type":"Polygon","coordinates":[[[-76.0205,35.6874],[-76.0332,35.662],[-76.0983,35.6702],[-76.1416,35.7028],[-76.169,35.6988],[-76.1695,35.6725],[-76.2138,35.5983],[-76.2858,35.6045],[-76.2979,35.6089],[-76.2692,35.6908],[-76.406,35.6976],[-76.4056,35.7863],[-76.3536,35.8613],[-76.38,35.9147],[-76.3581,35.9516],[-76.3584,36.02],[-76.2099,36.042],[-76.0226,36.0967],[-76.0224,36.0867],[-75.9063,36.0859],[-75.8748,36.0418],[-75.84,36.0288],[-75.9732,35.9766],[-76.0206,35.8411],[-76.0205,35.6874]]]}},{"type":"Feature","properties":{"county_fips":"37179","name":"Union"},"geometry":{"type":"Polygon","coordinates":[[[-80.3208,34.8139],[-80.7975,34.8198],[-80.7819,34.9358],[-80.8403,35.0017],[-80.7699,35.0345],[-80.5503,35.2084],[-80.4401,35.161],[-80.3701,35.1798],[-80.357,35.1649],[-80.2768,35.1957],[-80.3208,34.8139]]]}},{"type":"Feature","properties":{"county_fips":"37181","name":"Vance"},"geometry":{"type":"Polygon","coordinates":[[[-78.3781,36.2351],[-78.4216,36.1644],[-78.5083,36.1829],[-78.5112,36.4548],[-78.4977,36.5147],[-78.4569,36.5425],[-78.324,36.5438],[-78.2772,36.3061],[-78.3381,36.2344],[-78.3781,36.2351]]]}},{"type":"Feature","properties":{"county_fips":"37183","name":"Wake"},"geometry":{"type":"Polygon","coordinates":[[[-78.7089,35.5195],[-78.995,35.6102],[-78.9061,35.8681],[-78.83,35.867],[-78.8048,35.9276],[-78.7591,35.9184],[-78.7417,35.9339],[-78.6993,36.0114],[-78.7536,36.0314],[-78.7513,36.0708],[-78.7063,36.0764],[-78.4269,35.975],[-78.3943,35.9369],[-78.3533,35.9311],[-78.3504,35.9095],[-78.3071,35.8967],[-78.2537,35.8275],[-78.4692,35.7066],[-78.7089,35.5195]]]}},{"type":"Feature","properties":{"county_fips":"37185","name":"Warren"},"geometry":{"type":"Polygon","coordinates":[[[-77.9201,36.4361],[-77.912,36.3824],[-77.9424,36.2985],[-78.0066,36.2026],[-78.0305,36.2145],[-78.1101,36.2102],[-78.1327,36.2463],[-78.1732,36.2555],[-78.1939,36.2468],[-78.307,36.2662],[-78.2772,36.3061],[-78.324,36.5438],[-77.8998,36.5446],[-77.9201,36.4361]]]}},{"type":"Feature","properties":{"county_fips":"37187","name":"Washington"},"geometry":{"type":"Polygon","coordinates":[[[-76.7928,35.7901],[-76.8026,35.8052],[-76.7826,35.8243],[-76.7812,35.8534],[-76.7381,35.8776],[-76.6838,35.9531],[-76.6181,35.9769],[-76.4934,35.9852],[-76.3968,36.0264],[-76.3584,36.02],[-76.3581,35.9516],[-76.38,35.9147],[-76.3536,35.8613],[-76.4056,35.7863],[-76.406,35.6976],[-76.8446,35.7057],[-76.7928,35.7901]]]}},{"type":"Feature","properties":{"county_fips":"37189","name":"Watauga"},"geometry":{"type":"Polygon","coordinates":[[[-81.8115,36.1115],[-81.8294,36.169],[-81.8568,36.1937],[-81.8854,36.1895],[-81.909,36.2164],[-81.8935,36.2645],[-81.9176,36.2855],[-81.9082,36.302],[-81.7931,36.3624],[-81.765,36.3387],[-81.7075,36.3352],[-81.7288,36.3913],[-81.6382,36.3496],[-81.5661,36.272],[-81.4653,36.2266],[-81.4558,36.2004],[-81.5004,36.1425],[-81.5455,36.1175],[-81.8115,36.1115]]]}},{"type":"Feature","properties":{"county_fips":"37191","name":"Wayne"},"geometry":{"type":"Polygon","coordinates":[[[-77.8267,35.4241],[-77.7999,35.3823],[-77.8242,35.3438],[-77.8342,35.1778],[-77.8888,35.16],[-77.892,35.1463],[-77.9257,35.1729],[-77.9701,35.1659],[-78.0206,35.194],[-78.0774,35.1751],[-78.1634,35.1897],[-78.1618,35.2043],[-78.2462,35.226],[-78.3066,35.2876],[-78.2897,35.3151],[-78.1532,35.3507],[-78.1549,35.4178],[-78.058,35.5978],[-77.8244,35.5865],[-77.8267,35.4241]]]}},{"type":"Feature","properties":{"county_fips":"37193","name":"Wilkes"},"geometry":{"type":"Polygon","coordinates":[[[-81.0576,36.0316],[-81.2378,36.0309],[-81.3267,35.9949],[-81.345,36.0256],[-81.3964,36.0408],[-81.4074,36.0719],[-81.4448,36.0721],[-81.454,36.0905],[-81.5165,36.0975],[-81.5455,36.1175],[-81.5004,36.1425],[-81.4558,36.2004],[-81.4754,36.253],[-81.4306,36.2658],[-81.4141,36.2947],[-81.3786,36.2779],[-81.3667,36.2859],[-81.3543,36.3556],[-81.3319,36.3722],[-81.2433,36.3661],[-81.163,36.4325],[-81.1382,36.4125],[-81.0951,36.4408],[-81.078,36.4179],[-81.0443,36.4111],[-81.0267,36.3732],[-80.9814,36.3762],[-80.9672,36.402],[-80.8687,36.3264],[-80.8816,36.0557],[-80.9877,36.0558],[-81.0576,36.0316]]]}},{"type":"Feature","properties":{"county_fips":"37195","name":"Wilson"},"geometry":{"type":"Polygon","coordinates":[[[-78.058,35.5978],[-78.0648,35.5853],[-78.1256,35.6031],[-78.1612,35.7127],[-78.1921,35.7305],[-77.8974,35.8439],[-77.8447,35.8376],[-77.8284,35.8672],[-77.7513,35.8278],[-77.7184,35.7288],[-77.6651,35.6749],[-77.8063,35.5834],[-78.058,35.5978]]]}},{"type":"Feature","properties":{"county_fips":"37197","name":"Yadkin"},"geometry":{"type":"Polygon","coordinates":[[[-80.8732,36.2363],[-80.7859,36.252],[-80.7752,36.2743],[-80.7518,36.2634],[-80.737,36.2803],[-80.7333,36.2672],[-80.6846,36.2688],[-80.6573,36.2518],[-80.6282,36.2879],[-80.5933,36.2698],[-80.546,36.2849],[-80.5328,36.2581],[-80.4667,36.2598],[-80.4321,36.217],[-80.4463,36.2077],[-80.4394,36.1369],[-80.5156,36.0933],[-80.4963,36.0465],[-80.8816,36.0557],[-80.8732,36.2363]]]}},{"type":"Feature","properties":{"county_fips":"37199","name":"Yancey"},"geometry":{"type":"Polygon","coordinates":[[[-82.1483,35.8227],[-82.1336,35.8226],[-82.1679,35.7893],[-82.1605,35.7743],[-82.1934,35.7353],[-82.2664,35.7004],[-82.3349,35.7491],[-82.3489,35.8117],[-82.414,35.8198],[-82.4236,35.8695],[-82.4515,35.8988],[-82.4945,35.9091],[-82.4985,35.9302],[-82.4801,35.9492],[-82.5054,35.9774],[-82.4606,36.0077],[-82.4167,36.0728],[-82.352,36.0845],[-82.3382,36.0301],[-82.3124,36.0261],[-82.2997,36.0457],[-82.2533,35.9897],[-82.2521,36.0087],[-82.1971,36.0147],[-82.1859,35.9601],[-82.1977,35.9522],[-82.1697,35.9286],[-82.1454,35.9318],[-82.1483,35.8227]]]}}]}
