{
"type": "FeatureCollection",
"name": "nc_counties_2024",
"crs": { "type": "name", "properties": { "name": "urn:ogc:def:crs:OGC:1.3:CRS84" } },
"features": [
{ "type": "Feature", "properties": { "STATEFP": "37", "GEOID": "37001", "NAME": "Alamance", "ALAND": 1096763237 }, "geometry": { "type": "Polygon", "coordinates": [ [ [ -79.268243, 35.909182 ], [ -79.237312, 35.844122 ], [ -79.542428, 35.843303 ], [ -79.531865, 36.249673 ], [ -79.257952, 36.243445 ], [ -79.268243, 35.909182 ] ] ] } },
{ "type": "Feature", "properties": { "STATEFP": "37", "GEOID": "37003", "NAME": "Alexander", "ALAND": 673368516 }, "geometry": { "type": "Polygon", "coordinates": [ [ [ -81.227705, 36.030799 ], [ -81.111689, 36.037739 ], [ -81.098113, 36.028162 ], [ -81.028833, 36.045652 ], [ -81.0034, 35.996737 ], [ -81.041339, 35.857855 ], [ -81.109507, 35.776594 ], [ -81.149609, 35.828958 ], [ -81.334272, 35.796281 ], [ -81.342905, 35.923203 ], [ -81.328324, 35.996583 ], [ -81.227705, 36.030799 ] ] ] } },
{ "type": "Feature", "properties": { "STATEFP": "37", "GEOID": "37005", "NAME": "Alleghany", "ALAND": 608220278 }, "geometry": { "type": "Polygon", "coordinates": [ [ [ -81.187856, 36.401133 ], [ -81.253552, 36.366622 ], [ -81.24416, 36.384848 ], [ -81.265352, 36.432953 ], [ -81.322575, 36.495826 ], [ -81.353259, 36.574692 ], [ -80.901641, 36.561766 ], [ -80.926915, 36.501219 ], [ -80.973643, 36.453474 ], [ -80.947182, 36.419074 ], [ -80.981373, 36.37616 ], [ -81.026688, 36.373195 ], [ -81.044272, 36.411063 ], [ -81.078047, 36.417921 ], [ -81.095112, 36.440773 ], [ -81.138242, 36.412479 ], [ -81.162956, 36.432515 ], [ -81.187856, 36.401133 ] ] ] } },
{ "type": "Feature", "properties": { "STATEFP": "37", "GEOID": "37007", "NAME": "Anson", "ALAND": 1376478141 }, "geometry": { "type": "Polygon", "coordinates": [ [ [ -80.320828, 34.813906 ], [ -80.263855, 35.20841 ], [ -80.251401, 35.209075 ], [ -80.225002, 35.156241 ], [ -80.197369, 35.166586 ], [ -80.172819, 35.147847 ], [ -80.15702, 35.173797 ], [ -80.135742, 35.167636 ], [ -80.112965, 35.193996 ], [ -80.068484, 35.112363 ], [ -80.024355, 35.090375 ], [ -79.993377, 35.08546 ], [ -79.956992, 35.114361 ], [ -79.923972, 35.11543 ], [ -79.908983, 35.066963 ], [ -79.875884, 35.042584 ], [ -79.900627, 35.005737 ], [ -79.864435, 34.979251 ], [ -79.872303, 34.950371 ], [ -79.849536, 34.900006 ], [ -79.900462, 34.857779 ], [ -79.927412, 34.806734 ], [ -80.320828, 34.813906 ] ] ] } },
{ "type": "Feature", "properties": { "STATEFP": "37", "GEOID": "37009", "NAME": "Ashe", "ALAND": 1104023356 }, "geometry": { "type": "Polygon", "coordinates": [ [ [ -81.348963, 36.359079 ], [ -81.378643, 36.277913 ], [ -81.414359, 36.294635 ], [ -81.430287, 36.266004 ], [ -81.458236, 36.248415 ], [ -81.475389, 36.253036 ], [ -81.477516, 36.24025 ], [ -81.566119, 36.272037 ], [ -81.638186, 36.349606 ], [ -81.739368, 36.395591 ], [ -81.716858, 36.45658 ], [ -81.695029, 36.467458 ], [ -81.708075, 36.535687 ], [ -81.677837, 36.587845 ], [ -81.353259, 36.574692 ], [ -81.35315, 36.546077 ], [ -81.272081, 36.446848 ], [ -81.244029, 36.382971 ], [ -81.255886, 36.363217 ], [ -81.321376, 36.377139 ], [ -81.348963, 36.359079 ] ] ] } },
{ "type": "Feature", "properties": { "STATEFP": "37", "GEOID": "37011", "NAME": "Avery", "ALAND": 640602137 }, "geometry": { "type": "Polygon", "coordinates": [ [ [ -81.870031, 35.976306 ], [ -81.899871, 35.999909 ], [ -81.981954, 35.911361 ], [ -82.034104, 35.942057 ], [ -82.059134, 35.988346 ], [ -82.039175, 36.007774 ], [ -82.081004, 36.100939 ], [ -82.054317, 36.126624 ], [ -82.030067, 36.123393 ], [ -81.918119, 36.287129 ], [ -81.893489, 36.264531 ], [ -81.911238, 36.229502 ], [ -81.903133, 36.207324 ], [ -81.885383, 36.189451 ], [ -81.856666, 36.19362 ], [ -81.82923, 36.168791 ], [ -81.811522, 36.111459 ], [ -81.735673, 36.067584 ], [ -81.807162, 35.961955 ], [ -81.870031, 35.976306 ] ] ] } },
{ "type": "Feature", "properties": { "STATEFP": "37", "GEOID": "37013", "NAME": "Beaufort", "ALAND": 2156776424 }, "geometry": { "type": "Polygon", "coordinates": [ [ [ -76.604106, 35.512386 ], [ -76.579458, 35.485201 ], [ -76.584042, 35.449142 ], [ -76.522131, 35.353623 ], [ -76.590497, 35.361857 ], [ -76.617033, 35.330871 ], [ -76.612165, 35.279409 ], [ -76.632561, 35.235324 ], [ -76.845505, 35.216059 ], [ -76.958887, 35.301013 ], [ -77.190423, 35.418994 ], [ -77.167067, 35.496923 ], [ -77.17621, 35.5191 ], [ -77.12709, 35.554081 ], [ -77.084641, 35.552661 ], [ -77.174154, 35.635592 ], [ -77.169849, 35.684339 ], [ -77.193806, 35.70963 ], [ -77.170785, 35.716463 ], [ -77.16384, 35.739473 ], [ -76.985842, 35.658848 ], [ -76.847264, 35.719982 ], [ -76.84462, 35.705719 ], [ -76.637513, 35.705215 ], [ -76.601852, 35.669906 ], [ -76.606119, 35.646733 ], [ -76.577569, 35.611243 ], [ -76.467761, 35.556504 ], [ -76.491192, 35.520857 ], [ -76.58668, 35.523254 ], [ -76.604106, 35.512386 ] ] ] } },
{ "type": "Feature", "properties": { "STATEFP": "37", "GEOID": "37015", "NAME": "Bertie", "ALAND": 1810858562 }, "geometry": { "type": "Polygon", "coordinates": [ [ [ -76.814342, 35.885742 ], [ -76.834825, 35.88291 ], [ -76.83209, 35.85455 ], [ -76.860087, 35.825005 ], [ -76.89525, 35.813122 ], [ -76.893027, 35.863967 ], [ -76.923248, 35.898331 ], [ -76.940937, 35.901094 ], [ -77.00525, 35.858433 ], [ -77.034914, 35.857387 ], [ -77.045332, 35.875173 ], [ -77.022126, 35.890921 ], [ -77.044033, 35.943448 ], [ -77.070637, 35.943839 ], [ -77.094005, 35.92479 ], [ -77.123781, 35.926138 ], [ -77.130876, 35.940756 ], [ -77.173289, 35.928945 ], [ -77.195882, 35.936801 ], [ -77.206525, 36.007131 ], [ -77.327085, 36.068032 ], [ -77.313225, 36.089167 ], [ -77.230275, 36.104999 ], [ -77.251468, 36.115051 ], [ -77.239704, 36.120275 ], [ -77.265602, 36.139835 ], [ -77.263078, 36.158682 ], [ -77.298314, 36.172324 ], [ -77.297906, 36.208105 ], [ -77.228565, 36.214411 ], [ -77.208468, 36.246578 ], [ -76.706584, 36.243796 ], [ -76.732975, 36.212602 ], [ -76.737272, 36.158603 ], [ -76.708876, 36.06897 ], [ -76.682535, 36.030947 ], [ -76.606214, 35.978051 ], [ -76.687508, 35.950667 ], [ -76.751122, 35.867542 ], [ -76.780985, 35.863871 ], [ -76.814342, 35.885742 ] ] ] } },
{ "type": "Feature", "properties": { "STATEFP": "37", "GEOID": "37017", "NAME": "Bladen", "ALAND": 2266124566 }, "geometry": { "type": "Polygon", "coordinates": [ [ [ -78.826214, 34.850693 ], [ -78.516123, 34.845919 ], [ -78.494705, 34.856182 ], [ -78.390859, 34.749737 ], [ -78.373405, 34.699208 ], [ -78.325085, 34.669183 ], [ -78.305286, 34.602717 ], [ -78.254693, 34.568609 ], [ -78.272606, 34.537656 ], [ -78.255306, 34.508112 ], [ -78.176501, 34.465356 ], [ -78.256085, 34.399469 ], [ -78.335084, 34.367622 ], [ -78.44532, 34.3774 ], [ -78.646824, 34.460707 ], [ -78.659282, 34.45359 ], [ -78.667588, 34.469645 ], [ -78.825861, 34.461732 ], [ -78.858063, 34.474411 ], [ -78.869358, 34.487143 ], [ -78.844438, 34.508096 ], [ -78.862659, 34.562227 ], [ -78.836045, 34.593416 ], [ -78.805721, 34.689202 ], [ -78.854248, 34.73549 ], [ -78.901998, 34.835268 ], [ -78.826214, 34.850693 ] ] ] } },
{ "type": "Feature", "properties": { "STATEFP": "37", "GEOID": "37019", "NAME": "Brunswick", "ALAND": 2201668770 }, "geometry": { "type": "Polygon", "coordinates": [ [ [ -77.959749, 34.237638 ], [ -77.931103, 34.058884 ], [ -77.948479, 33.971274 ], [ -77.897011, 33.7868 ], [ -77.929284, 33.757984 ], [ -77.983768, 33.75872 ], [ -78.066581, 33.847985 ], [ -78.145353, 33.862734 ], [ -78.341208, 33.855293 ], [ -78.499301, 33.812852 ], [ -78.650818, 33.944918 ], [ -78.648351, 33.96554 ], [ -78.624083, 33.973298 ], [ -78.640615, 34.01028 ], [ -78.5908, 34.027155 ], [ -78.557052, 34.061849 ], [ -78.544977, 34.145957 ], [ -78.503647, 34.169193 ], [ -78.422921, 34.139494 ], [ -78.366793, 34.188774 ], [ -78.374295, 34.204893 ], [ -78.254622, 34.216305 ], [ -78.153481, 34.365587 ], [ -78.12148, 34.368286 ], [ -78.079126, 34.354165 ], [ -78.077778, 34.338506 ], [ -78.059061, 34.345149 ], [ -78.026033, 34.317992 ], [ -78.008657, 34.322552 ], [ -78.015913, 34.290269 ], [ -77.990212, 34.281669 ], [ -78.002012, 34.273069 ], [ -77.959749, 34.237638 ] ] ] } },
{ "type": "Feature", "properties": { "STATEFP": "37", "GEOID": "37021", "NAME": "Buncombe", "ALAND": 1700301514 }, "geometry": { "type": "Polygon", "coordinates": [ [ [ -82.529748, 35.424432 ], [ -82.54695, 35.425159 ], [ -82.548825, 35.444305 ], [ -82.570608, 35.431045 ], [ -82.621749, 35.435693 ], [ -82.673099, 35.459493 ], [ -82.745139, 35.422967 ], [ -82.781691, 35.439542 ], [ -82.799637, 35.471034 ], [ -82.765938, 35.567622 ], [ -82.811266, 35.627084 ], [ -82.851668, 35.617272 ], [ -82.888107, 35.673009 ], [ -82.84887, 35.701728 ], [ -82.806532, 35.685784 ], [ -82.730975, 35.722403 ], [ -82.713963, 35.717652 ], [ -82.712131, 35.732994 ], [ -82.669608, 35.725794 ], [ -82.67764, 35.734655 ], [ -82.514652, 35.803243 ], [ -82.475845, 35.798308 ], [ -82.361956, 35.821245 ], [ -82.338295, 35.801717 ], [ -82.334482, 35.748555 ], [ -82.275749, 35.713906 ], [ -82.295028, 35.684125 ], [ -82.264808, 35.614488 ], [ -82.291026, 35.591322 ], [ -82.251251, 35.559943 ], [ -82.169049, 35.527811 ], [ -82.233203, 35.519402 ], [ -82.224336, 35.498269 ], [ -82.251437, 35.460685 ], [ -82.3334, 35.500163 ], [ -82.369323, 35.485518 ], [ -82.363133, 35.46096 ], [ -82.417599, 35.474485 ], [ -82.470557, 35.445174 ], [ -82.53491, 35.444413 ], [ -82.529748, 35.424432 ] ] ] } },
{ "type": "Feature", "properties": { "STATEFP": "37", "GEOID": "37023", "NAME": "Burke", "ALAND": 1311146878 }, "geometry": { "type": "Polygon", "coordinates": [ [ [ -81.943188, 35.96005 ], [ -81.899871, 35.999909 ], [ -81.870232, 35.976365 ], [ -81.817431, 35.968368 ], [ -81.777535, 35.947381 ], [ -81.77623, 35.927117 ], [ -81.752523, 35.924426 ], [ -81.710169, 35.875178 ], [ -81.600809, 35.825096 ], [ -81.555994, 35.777538 ], [ -81.446368, 35.785271 ], [ -81.398584, 35.758425 ], [ -81.363796, 35.767802 ], [ -81.537599, 35.564228 ], [ -81.648967, 35.56161 ], [ -81.753407, 35.613588 ], [ -81.824122, 35.574983 ], [ -81.869388, 35.719624 ], [ -81.986939, 35.806923 ], [ -81.920509, 35.847079 ], [ -81.906652, 35.883376 ], [ -81.943188, 35.96005 ] ] ] } },
{ "type": "Feature", "properties": { "STATEFP": "37", "GEOID": "37025", "NAME": "Cabarrus", "ALAND": 935587423 }, "geometry": { "type": "Polygon", "coordinates": [ [ [ -80.784167, 35.506017 ], [ -80.295421, 35.50292 ], [ -80.504985, 35.184998 ], [ -80.66648, 35.267934 ], [ -80.693061, 35.346379 ], [ -80.766414, 35.401478 ], [ -80.752167, 35.41405 ], [ -80.787091, 35.494916 ], [ -80.784167, 35.506017 ] ] ] } },
{ "type": "Feature", "properties": { "STATEFP": "37", "GEOID": "37027", "NAME": "Caldwell", "ALAND": 1222176567 }, "geometry": { "type": "Polygon", "coordinates": [ [ [ -81.336472, 36.010634 ], [ -81.344034, 35.824553 ], [ -81.331829, 35.800748 ], [ -81.353872, 35.768851 ], [ -81.382192, 35.757192 ], [ -81.44605, 35.785245 ], [ -81.554103, 35.776948 ], [ -81.600809, 35.825096 ], [ -81.710169, 35.875178 ], [ -81.752523, 35.924426 ], [ -81.77623, 35.927117 ], [ -81.777535, 35.947381 ], [ -81.808849, 35.958346 ], [ -81.735673, 36.067584 ], [ -81.810516, 36.111511 ], [ -81.545488, 36.117475 ], [ -81.516465, 36.097476 ], [ -81.453986, 36.090494 ], [ -81.44477, 36.072131 ], [ -81.407414, 36.07185 ], [ -81.396396, 36.040764 ], [ -81.380843, 36.044359 ], [ -81.336472, 36.010634 ] ] ] } },
{ "type": "Feature", "properties": { "STATEFP": "37", "GEOID": "37029", "NAME": "Camden", "ALAND": 622441458 }, "geometry": { "type": "Polygon", "coordinates": [ [ [ -76.541966, 36.550653 ], [ -76.313303, 36.55052 ], [ -76.158532, 36.425333 ], [ -76.157472, 36.398178 ], [ -76.114444, 36.357636 ], [ -76.073918, 36.346124 ], [ -76.051925, 36.360261 ], [ -76.031674, 36.338597 ], [ -76.017518, 36.345068 ], [ -75.999651, 36.311174 ], [ -75.973111, 36.309773 ], [ -75.948669, 36.285702 ], [ -75.963233, 36.258471 ], [ -75.889459, 36.167521 ], [ -75.906295, 36.085877 ], [ -76.022398, 36.086654 ], [ -76.02939, 36.158819 ], [ -76.067591, 36.2153 ], [ -76.09827, 36.227627 ], [ -76.137603, 36.273326 ], [ -76.217085, 36.298803 ], [ -76.181276, 36.321939 ], [ -76.215978, 36.327675 ], [ -76.231329, 36.37208 ], [ -76.257177, 36.363544 ], [ -76.258891, 36.384274 ], [ -76.291542, 36.386629 ], [ -76.322172, 36.427456 ], [ -76.34583, 36.421489 ], [ -76.437286, 36.467846 ], [ -76.541966, 36.550653 ] ] ] } },
{ "type": "Feature", "properties": { "STATEFP": "37", "GEOID": "37031", "NAME": "Carteret", "ALAND": 1314694122 }, "geometry": { "type": "Polygon", "coordinates": [ [ [ -76.340601, 34.751315 ], [ -76.439001, 34.640288 ], [ -76.483183, 34.55636 ], [ -76.531644, 34.531736 ], [ -76.58372, 34.552625 ], [ -76.614722, 34.618278 ], [ -76.729827, 34.64721 ], [ -76.950968, 34.625162 ], [ -77.117198, 34.584367 ], [ -77.11316, 34.651027 ], [ -77.096073, 34.67124 ], [ -77.113529, 34.680541 ], [ -77.105995, 34.710328 ], [ -77.125646, 34.756707 ], [ -77.157914, 34.766036 ], [ -77.167769, 34.791 ], [ -77.090731, 34.799316 ], [ -77.084952, 34.811148 ], [ -76.954438, 34.809066 ], [ -76.954773, 34.824508 ], [ -76.883201, 34.844893 ], [ -76.758008, 34.846285 ], [ -76.693018, 34.86918 ], [ -76.652571, 34.937595 ], [ -76.71158, 34.981768 ], [ -76.304136, 35.201453 ], [ -76.065774, 35.124937 ], [ -76.006557, 35.053869 ], [ -76.006936, 35.006031 ], [ -76.124626, 34.933081 ], [ -76.340601, 34.751315 ] ] ] } },
{ "type": "Feature", "properties": { "STATEFP": "37", "GEOID": "37033", "NAME": "Caswell", "ALAND": 1101995790 }, "geometry": { "type": "Polygon", "coordinates": [ [ [ -79.13832, 36.541975 ], [ -79.153997, 36.241875 ], [ -79.531865, 36.249673 ], [ -79.513638, 36.540902 ], [ -79.13832, 36.541975 ] ] ] } },
{ "type": "Feature", "properties": { "STATEFP": "37", "GEOID": "37035", "NAME": "Catawba", "ALAND": 1039552776 }, "geometry": { "type": "Polygon", "coordinates": [ [ [ -81.535253, 35.568412 ], [ -81.34552, 35.794378 ], [ -81.149609, 35.828958 ], [ -81.128414, 35.789383 ], [ -81.067863, 35.7381 ], [ -81.062929, 35.71189 ], [ -81.003189, 35.709166 ], [ -80.925213, 35.620258 ], [ -80.960025, 35.54702 ], [ -81.535253, 35.568412 ] ] ] } },
{ "type": "Feature", "properties": { "STATEFP": "37", "GEOID": "37037", "NAME": "Chatham", "ALAND": 1765030860 }, "geometry": { "type": "Polygon", "coordinates": [ [ [ -79.241132, 35.570543 ], [ -79.267475, 35.532756 ], [ -79.299282, 35.553435 ], [ -79.323909, 35.543839 ], [ -79.312086, 35.53046 ], [ -79.350073, 35.518002 ], [ -79.555804, 35.515039 ], [ -79.542428, 35.843303 ], [ -79.237312, 35.844122 ], [ -79.249538, 35.87681 ], [ -79.082036, 35.860776 ], [ -78.906071, 35.868096 ], [ -78.995048, 35.610166 ], [ -78.916067, 35.584102 ], [ -78.96964, 35.521669 ], [ -79.024001, 35.548377 ], [ -79.069131, 35.609283 ], [ -79.117096, 35.628164 ], [ -79.200854, 35.576678 ], [ -79.199886, 35.558558 ], [ -79.224479, 35.550811 ], [ -79.218944, 35.566059 ], [ -79.241132, 35.570543 ] ] ] } },
{ "type": "Feature", "properties": { "STATEFP": "37", "GEOID": "37039", "NAME": "Cherokee", "ALAND": 1179842036 }, "geometry": { "type": "Polygon", "coordinates": [ [ [ -84.321821, 34.988408 ], [ -84.290214, 35.225432 ], [ -84.227484, 35.267926 ], [ -84.188531, 35.24007 ], [ -84.127111, 35.24077 ], [ -84.029067, 35.292248 ], [ -84.002932, 35.235001 ], [ -83.967183, 35.217841 ], [ -83.84515, 35.255236 ], [ -83.795159, 35.257463 ], [ -83.756767, 35.242459 ], [ -83.708591, 35.257603 ], [ -83.690113, 35.237497 ], [ -83.728825, 35.200862 ], [ -83.711878, 35.190354 ], [ -83.738129, 35.15595 ], [ -83.857124, 35.137066 ], [ -83.907671, 35.078219 ], [ -83.963975, 35.048125 ], [ -83.956506, 35.026279 ], [ -84.005132, 34.987175 ], [ -84.321821, 34.988408 ] ] ] } },
{ "type": "Feature", "properties": { "STATEFP": "37", "GEOID": "37041", "NAME": "Chowan", "ALAND": 447179939 }, "geometry": { "type": "Polygon", "coordinates": [ [ [ -76.732975, 36.212602 ], [ -76.689462, 36.270984 ], [ -76.696571, 36.296138 ], [ -76.669852, 36.315348 ], [ -76.651565, 36.310615 ], [ -76.63931, 36.329799 ], [ -76.596603, 36.323259 ], [ -76.559646, 36.351056 ], [ -76.568233, 36.274179 ], [ -76.590107, 36.238862 ], [ -76.572662, 36.110521 ], [ -76.499833, 36.085472 ], [ -76.478789, 36.093554 ], [ -76.403882, 36.074051 ], [ -76.396783, 36.02636 ], [ -76.511899, 35.980726 ], [ -76.61761, 35.984267 ], [ -76.688808, 36.038165 ], [ -76.733567, 36.13782 ], [ -76.732975, 36.212602 ] ] ] } },
{ "type": "Feature", "properties": { "STATEFP": "37", "GEOID": "37043", "NAME": "Clay", "ALAND": 556849483 }, "geometry": { "type": "Polygon", "coordinates": [ [ [ -83.865514, 35.127342 ], [ -83.752743, 35.160836 ], [ -83.72666, 35.145432 ], [ -83.658884, 35.160051 ], [ -83.645108, 35.145159 ], [ -83.654929, 35.135808 ], [ -83.640172, 35.138719 ], [ -83.635062, 35.121221 ], [ -83.61906, 35.128382 ], [ -83.618299, 35.106798 ], [ -83.566947, 35.070982 ], [ -83.558412, 35.039134 ], [ -83.521326, 35.01828 ], [ -83.521007, 34.996772 ], [ -83.51036, 35.005155 ], [ -83.482949, 34.993301 ], [ -84.005132, 34.987175 ], [ -83.956506, 35.026279 ], [ -83.963975, 35.048125 ], [ -83.907671, 35.078219 ], [ -83.865514, 35.127342 ] ] ] } },
{ "type": "Feature", "properties": { "STATEFP": "37", "GEOID": "37045", "NAME": "Cleveland", "ALAND": 1202409706 }, "geometry": { "type": "Polygon", "coordinates": [ [ [ -81.768102, 35.180611 ], [ -81.702853, 35.357304 ], [ -81.692673, 35.582981 ], [ -81.648967, 35.56161 ], [ -81.596232, 35.57126 ], [ -81.515421, 35.558297 ], [ -81.513004, 35.523317 ], [ -81.45863, 35.423317 ], [ -81.398924, 35.353138 ], [ -81.356682, 35.330604 ], [ -81.355515, 35.28023 ], [ -81.321729, 35.260449 ], [ -81.328037, 35.163467 ], [ -81.768102, 35.180611 ] ] ] } },
{ "type": "Feature", "properties": { "STATEFP": "37", "GEOID": "37047", "NAME": "Columbus", "ALAND": 2429920494 }, "geometry": { "type": "Polygon", "coordinates": [ [ [ -78.648373, 34.460869 ], [ -78.44532, 34.3774 ], [ -78.335084, 34.367622 ], [ -78.256085, 34.399469 ], [ -78.202532, 34.353306 ], [ -78.162192, 34.35724 ], [ -78.254622, 34.216305 ], [ -78.374295, 34.204893 ], [ -78.366793, 34.188774 ], [ -78.422921, 34.139494 ], [ -78.503647, 34.169193 ], [ -78.544977, 34.145957 ], [ -78.557052, 34.061849 ], [ -78.5908, 34.027155 ], [ -78.640615, 34.01028 ], [ -78.624083, 33.973298 ], [ -78.648351, 33.96554 ], [ -78.650342, 33.944365 ], [ -79.071211, 34.299342 ], [ -79.038471, 34.313138 ], [ -79.027112, 34.353068 ], [ -79.009079, 34.352828 ], [ -79.011611, 34.380887 ], [ -78.969736, 34.395211 ], [ -78.959775, 34.442982 ], [ -78.906854, 34.455841 ], [ -78.868961, 34.484778 ], [ -78.825861, 34.461732 ], [ -78.648373, 34.460869 ] ] ] } },
{ "type": "Feature", "properties": { "STATEFP": "37", "GEOID": "37049", "NAME": "Craven", "ALAND": 1829934615 }, "geometry": { "type": "Polygon", "coordinates": [ [ [ -77.352351, 35.327896 ], [ -77.29434, 35.379137 ], [ -77.266559, 35.353873 ], [ -77.247217, 35.354712 ], [ -77.227127, 35.399845 ], [ -77.201559, 35.398664 ], [ -77.189115, 35.418362 ], [ -76.958887, 35.301013 ], [ -76.895919, 35.253889 ], [ -76.959481, 35.202843 ], [ -76.970194, 35.162149 ], [ -76.987569, 35.154649 ], [ -76.97514, 35.133169 ], [ -76.930865, 35.116819 ], [ -76.936222, 35.061725 ], [ -76.967297, 35.040655 ], [ -76.901313, 34.984097 ], [ -76.819113, 34.952471 ], [ -76.761992, 34.953833 ], [ -76.71158, 34.981768 ], [ -76.652571, 34.937595 ], [ -76.693018, 34.86918 ], [ -76.758008, 34.846285 ], [ -76.883201, 34.844893 ], [ -76.954773, 34.824508 ], [ -76.954438, 34.809066 ], [ -77.078263, 34.811322 ], [ -77.047249, 34.836416 ], [ -77.108851, 34.83078 ], [ -77.109656, 35.068609 ], [ -77.180592, 35.05522 ], [ -77.187679, 35.081086 ], [ -77.473692, 35.228985 ], [ -77.42613, 35.257545 ], [ -77.449613, 35.299457 ], [ -77.431319, 35.329781 ], [ -77.395158, 35.343024 ], [ -77.352351, 35.327896 ] ] ] } },
{ "type": "Feature", "properties": { "STATEFP": "37", "GEOID": "37051", "NAME": "Cumberland", "ALAND": 1690137276 }, "geometry": { "type": "Polygon", "coordinates": [ [ [ -78.826331, 34.850693 ], [ -78.90422, 34.834862 ], [ -78.940844, 34.903368 ], [ -79.038747, 34.952715 ], [ -79.090291, 35.042031 ], [ -79.112755, 35.124667 ], [ -79.097195, 35.191023 ], [ -78.920211, 35.220276 ], [ -78.79428, 35.266101 ], [ -78.617114, 35.245718 ], [ -78.624516, 35.203419 ], [ -78.646797, 35.197704 ], [ -78.629862, 35.172485 ], [ -78.652539, 35.121014 ], [ -78.639274, 35.116039 ], [ -78.672308, 35.085381 ], [ -78.647614, 34.993218 ], [ -78.544485, 34.914821 ], [ -78.546861, 34.90062 ], [ -78.494705, 34.856182 ], [ -78.516123, 34.845919 ], [ -78.826331, 34.850693 ] ] ] } },
{ "type": "Feature", "properties": { "STATEFP": "37", "GEOID": "37053", "NAME": "Currituck", "ALAND": 678344374 }, "geometry": { "type": "Polygon", "coordinates": [ [ [ -76.313303, 36.55052 ], [ -75.797497, 36.550916 ], [ -75.709078, 36.244984 ], [ -75.813108, 36.22356 ], [ -75.776537, 36.135642 ], [ -75.77306, 36.051074 ], [ -75.840046, 36.028834 ], [ -75.889534, 36.055339 ], [ -75.906295, 36.085877 ], [ -75.887984, 36.163311 ], [ -75.963233, 36.258471 ], [ -75.948777, 36.285851 ], [ -75.973111, 36.309773 ], [ -75.999651, 36.311174 ], [ -76.036413, 36.355174 ], [ -76.073918, 36.346124 ], [ -76.114444, 36.357636 ], [ -76.157472, 36.398178 ], [ -76.158532, 36.425333 ], [ -76.313303, 36.55052 ] ] ] } },
{ "type": "Feature", "properties": { "STATEFP": "37", "GEOID": "37055", "NAME": "Dare", "ALAND": 992558552 }, "geometry": { "type": "Polygon", "coordinates": [ [ [ -75.813108, 36.22356 ], [ -75.709078, 36.244984 ], [ -75.437617, 35.74696 ], [ -75.40039, 35.593512 ], [ -75.426135, 35.386923 ], [ -75.484571, 35.187577 ], [ -75.532176, 35.167149 ], [ -75.595369, 35.182827 ], [ -75.73662, 35.140565 ], [ -75.814021, 35.500182 ], [ -75.868393, 35.578104 ], [ -75.877389, 35.629299 ], [ -75.901342, 35.668952 ], [ -76.027479, 35.668849 ], [ -76.017694, 35.865356 ], [ -75.973152, 35.976643 ], [ -75.764727, 36.060139 ], [ -75.813108, 36.22356 ] ] ] } },
{ "type": "Feature", "properties": { "STATEFP": "37", "GEOID": "37057", "NAME": "Davidson", "ALAND": 1432251776 }, "geometry": { "type": "Polygon", "coordinates": [ [ [ -80.394307, 35.972762 ], [ -80.330298, 35.996556 ], [ -80.213842, 35.996699 ], [ -80.21373, 36.026808 ], [ -80.043238, 36.010758 ], [ -80.066842, 35.505661 ], [ -80.183264, 35.504141 ], [ -80.20886, 35.581334 ], [ -80.330602, 35.678799 ], [ -80.333034, 35.719447 ], [ -80.455459, 35.735919 ], [ -80.450791, 35.767091 ], [ -80.476702, 35.789093 ], [ -80.464754, 35.806627 ], [ -80.487553, 35.833234 ], [ -80.476429, 35.843843 ], [ -80.462556, 35.826964 ], [ -80.446444, 35.83666 ], [ -80.431691, 35.828356 ], [ -80.420733, 35.852662 ], [ -80.388917, 35.844642 ], [ -80.390041, 35.868277 ], [ -80.416641, 35.881056 ], [ -80.365127, 35.893667 ], [ -80.374579, 35.954798 ], [ -80.394307, 35.972762 ] ] ] } },
{ "type": "Feature", "properties": { "STATEFP": "37", "GEOID": "37059", "NAME": "Davie", "ALAND": 682977539 }, "geometry": { "type": "Polygon", "coordinates": [ [ [ -80.693197, 36.05126 ], [ -80.4884, 36.04302 ], [ -80.46299, 36.062305 ], [ -80.418148, 36.015983 ], [ -80.421416, 35.98755 ], [ -80.375002, 35.955888 ], [ -80.367896, 35.888452 ], [ -80.407234, 35.891614 ], [ -80.416641, 35.881056 ], [ -80.390041, 35.868277 ], [ -80.389306, 35.844147 ], [ -80.420733, 35.852662 ], [ -80.431691, 35.828356 ], [ -80.446444, 35.83666 ], [ -80.462556, 35.826964 ], [ -80.476429, 35.843843 ], [ -80.487419, 35.833601 ], [ -80.464754, 35.806627 ], [ -80.476702, 35.789093 ], [ -80.450791, 35.767091 ], [ -80.458923, 35.742758 ], [ -80.478299, 35.774771 ], [ -80.487201, 35.766248 ], [ -80.496573, 35.782747 ], [ -80.508247, 35.774457 ], [ -80.532884, 35.785248 ], [ -80.631481, 35.845573 ], [ -80.671296, 35.846531 ], [ -80.691744, 35.8635 ], [ -80.707602, 35.852189 ], [ -80.693197, 36.05126 ] ] ] } },
{ "type": "Feature", "properties": { "STATEFP": "37", "GEOID": "37061", "NAME": "Duplin", "ALAND": 2110115795 }, "geometry": { "type": "Polygon", "coordinates": [ [ [ -77.680127, 34.720595 ], [ -77.980983, 34.713891 ], [ -78.016073, 34.732556 ], [ -78.135194, 34.710201 ], [ -78.198642, 34.741637 ], [ -78.147129, 34.902506 ], [ -78.171845, 35.093528 ], [ -78.16342, 35.189716 ], [ -78.077389, 35.175135 ], [ -78.020633, 35.193967 ], [ -77.970109, 35.165922 ], [ -77.925671, 35.17292 ], [ -77.892199, 35.146315 ], [ -77.888768, 35.159962 ], [ -77.834262, 35.177853 ], [ -77.769177, 35.145576 ], [ -77.749572, 35.10861 ], [ -77.746037, 35.02234 ], [ -77.674805, 34.9739 ], [ -77.653352, 34.940535 ], [ -77.680127, 34.720595 ] ] ] } },
{ "type": "Feature", "properties": { "STATEFP": "37", "GEOID": "37063", "NAME": "Durham", "ALAND": 744748241 }, "geometry": { "type": "Polygon", "coordinates": [ [ [ -78.806756, 35.922925 ], [ -78.829965, 35.866978 ], [ -79.016305, 35.86321 ], [ -78.950597, 36.23932 ], [ -78.802335, 36.235794 ], [ -78.807537, 36.087367 ], [ -78.783795, 36.070018 ], [ -78.751273, 36.070834 ], [ -78.753611, 36.031384 ], [ -78.719951, 36.02959 ], [ -78.699316, 36.011448 ], [ -78.717014, 35.961265 ], [ -78.759104, 35.918394 ], [ -78.806756, 35.922925 ] ] ] } },
{ "type": "Feature", "properties": { "STATEFP": "37", "GEOID": "37065", "NAME": "Edgecombe", "ALAND": 1309073894 }, "geometry": { "type": "Polygon", "coordinates": [ [ [ -77.472286, 35.801095 ], [ -77.665131, 35.674935 ], [ -77.718436, 35.728823 ], [ -77.751339, 35.827794 ], [ -77.828444, 35.867208 ], [ -77.697956, 36.15315 ], [ -77.643833, 36.138052 ], [ -77.626531, 36.111437 ], [ -77.540781, 36.096178 ], [ -77.52666, 36.037574 ], [ -77.474851, 36.037775 ], [ -77.427962, 36.005291 ], [ -77.402614, 36.004966 ], [ -77.342418, 35.905262 ], [ -77.350369, 35.819228 ], [ -77.390154, 35.833062 ], [ -77.424701, 35.805662 ], [ -77.472286, 35.801095 ] ] ] } },
{ "type": "Feature", "properties": { "STATEFP": "37", "GEOID": "37067", "NAME": "Forsyth", "ALAND": 1056834341 }, "geometry": { "type": "Polygon", "coordinates": [ [ [ -80.217339, 35.996696 ], [ -80.330298, 35.996556 ], [ -80.394307, 35.972762 ], [ -80.421767, 35.988007 ], [ -80.418148, 36.015983 ], [ -80.462613, 36.062092 ], [ -80.48767, 36.043114 ], [ -80.506589, 36.053895 ], [ -80.507291, 36.10784 ], [ -80.439045, 36.137777 ], [ -80.446336, 36.207699 ], [ -80.432153, 36.217553 ], [ -80.451925, 36.261515 ], [ -80.035119, 36.257184 ], [ -80.043238, 36.010758 ], [ -80.21373, 36.026808 ], [ -80.217339, 35.996696 ] ] ] } },
{ "type": "Feature", "properties": { "STATEFP": "37", "GEOID": "37069", "NAME": "Franklin", "ALAND": 1273761678 }, "geometry": { "type": "Polygon", "coordinates": [ [ [ -78.129693, 36.239551 ], [ -78.110069, 36.210204 ], [ -78.030468, 36.214539 ], [ -78.006551, 36.202633 ], [ -78.255973, 35.81812 ], [ -78.278014, 35.867335 ], [ -78.307125, 35.896718 ], [ -78.350375, 35.909517 ], [ -78.353277, 35.931056 ], [ -78.394331, 35.936876 ], [ -78.426864, 35.975012 ], [ -78.546414, 36.021826 ], [ -78.544812, 36.080846 ], [ -78.493115, 36.183722 ], [ -78.457909, 36.163661 ], [ -78.421523, 36.164416 ], [ -78.37814, 36.235065 ], [ -78.338135, 36.234448 ], [ -78.306965, 36.266191 ], [ -78.193922, 36.246773 ], [ -78.173172, 36.255492 ], [ -78.129693, 36.239551 ] ] ] } },
{ "type": "Feature", "properties": { "STATEFP": "37", "GEOID": "37071", "NAME": "Gaston", "ALAND": 921389625 }, "geometry": { "type": "Polygon", "coordinates": [ [ [ -81.01103, 35.278244 ], [ -81.009456, 35.153144 ], [ -81.328037, 35.163467 ], [ -81.321729, 35.260449 ], [ -81.355515, 35.28023 ], [ -81.356682, 35.330604 ], [ -81.398924, 35.353138 ], [ -81.4556, 35.419811 ], [ -80.95486, 35.400078 ], [ -80.9837, 35.368351 ], [ -80.960161, 35.375413 ], [ -80.923214, 35.359536 ], [ -80.983893, 35.341253 ], [ -81.01103, 35.278244 ] ] ] } },
{ "type": "Feature", "properties": { "STATEFP": "37", "GEOID": "37073", "NAME": "Gates", "ALAND": 882181709 }, "geometry": { "type": "Polygon", "coordinates": [ [ [ -76.68844, 36.299048 ], [ -76.77827, 36.361991 ], [ -76.822691, 36.364447 ], [ -76.943202, 36.409481 ], [ -76.950606, 36.47079 ], [ -76.934362, 36.471269 ], [ -76.906657, 36.510148 ], [ -76.924991, 36.530744 ], [ -76.915899, 36.552149 ], [ -76.541966, 36.550653 ], [ -76.491336, 36.510677 ], [ -76.491405, 36.468648 ], [ -76.453711, 36.378092 ], [ -76.556881, 36.355204 ], [ -76.596603, 36.323259 ], [ -76.63931, 36.329799 ], [ -76.651426, 36.310698 ], [ -76.669852, 36.315348 ], [ -76.68844, 36.299048 ] ] ] } },
{ "type": "Feature", "properties": { "STATEFP": "37", "GEOID": "37075", "NAME": "Graham", "ALAND": 756194687 }, "geometry": { "type": "Polygon", "coordinates": [ [ [ -84.023498, 35.411419 ], [ -83.96108, 35.464138 ], [ -83.935745, 35.448435 ], [ -83.908284, 35.466514 ], [ -83.86589, 35.448292 ], [ -83.808118, 35.443968 ], [ -83.800838, 35.4558 ], [ -83.652224, 35.426476 ], [ -83.64242, 35.443618 ], [ -83.610814, 35.427045 ], [ -83.586905, 35.435083 ], [ -83.582386, 35.40963 ], [ -83.620475, 35.345491 ], [ -83.690594, 35.317158 ], [ -83.680114, 35.2795 ], [ -83.702652, 35.248462 ], [ -83.84515, 35.255236 ], [ -83.959207, 35.216893 ], [ -84.002774, 35.234824 ], [ -84.029191, 35.291605 ], [ -84.03839, 35.350924 ], [ -84.007394, 35.371649 ], [ -84.023498, 35.411419 ] ] ] } },
{ "type": "Feature", "properties": { "STATEFP": "37", "GEOID": "37077", "NAME": "Granville", "ALAND": 1377850209 }, "geometry": { "type": "Polygon", "coordinates": [ [ [ -78.508331, 36.182956 ], [ -78.496614, 36.175199 ], [ -78.544812, 36.080846 ], [ -78.546414, 36.021826 ], [ -78.683224, 36.074484 ], [ -78.783371, 36.069944 ], [ -78.807484, 36.087295 ], [ -78.796274, 36.541741 ], [ -78.453477, 36.540287 ], [ -78.497736, 36.514664 ], [ -78.511224, 36.454808 ], [ -78.508331, 36.182956 ] ] ] } },
{ "type": "Feature", "properties": { "STATEFP": "37", "GEOID": "37079", "NAME": "Greene", "ALAND": 690838975 }, "geometry": { "type": "Polygon", "coordinates": [ [ [ -77.528338, 35.414336 ], [ -77.566382, 35.382982 ], [ -77.613822, 35.377824 ], [ -77.637386, 35.354419 ], [ -77.674701, 35.347568 ], [ -77.697516, 35.377097 ], [ -77.806248, 35.368754 ], [ -77.804893, 35.406202 ], [ -77.826744, 35.42409 ], [ -77.822511, 35.585383 ], [ -77.689025, 35.649594 ], [ -77.61037, 35.567552 ], [ -77.557803, 35.53191 ], [ -77.503408, 35.517975 ], [ -77.511587, 35.497035 ], [ -77.475515, 35.426655 ], [ -77.484241, 35.413578 ], [ -77.528338, 35.414336 ] ] ] } },
{ "type": "Feature", "properties": { "STATEFP": "37", "GEOID": "37081", "NAME": "Guilford", "ALAND": 1673100202 }, "geometry": { "type": "Polygon", "coordinates": [ [ [ -79.53241, 36.241463 ], [ -79.541728, 35.899851 ], [ -80.046869, 35.920693 ], [ -80.035119, 36.257184 ], [ -79.53241, 36.241463 ] ] ] } },
{ "type": "Feature", "properties": { "STATEFP": "37", "GEOID": "37083", "NAME": "Halifax", "ALAND": 1874472932 }, "geometry": { "type": "Polygon", "coordinates": [ [ [ -77.409427, 36.263549 ], [ -77.376934, 36.245047 ], [ -77.383611, 36.208206 ], [ -77.263366, 36.158941 ], [ -77.265602, 36.139835 ], [ -77.239704, 36.120275 ], [ -77.251468, 36.115051 ], [ -77.230129, 36.105932 ], [ -77.31386, 36.088836 ], [ -77.402614, 36.004966 ], [ -77.427962, 36.005291 ], [ -77.474851, 36.037775 ], [ -77.52666, 36.037574 ], [ -77.533433, 36.091051 ], [ -77.626531, 36.111437 ], [ -77.678533, 36.154373 ], [ -77.721332, 36.133795 ], [ -77.750068, 36.157468 ], [ -77.774138, 36.142529 ], [ -77.804335, 36.149731 ], [ -77.808066, 36.138221 ], [ -77.88724, 36.14384 ], [ -77.922682, 36.166342 ], [ -77.923918, 36.188906 ], [ -77.944004, 36.192592 ], [ -77.951216, 36.180565 ], [ -77.972939, 36.194331 ], [ -77.978185, 36.17528 ], [ -78.006395, 36.201694 ], [ -77.942406, 36.298526 ], [ -77.892355, 36.512071 ], [ -77.767914, 36.480045 ], [ -77.644633, 36.480553 ], [ -77.626019, 36.445699 ], [ -77.549481, 36.412052 ], [ -77.547566, 36.372483 ], [ -77.585599, 36.337344 ], [ -77.571386, 36.314086 ], [ -77.542075, 36.303176 ], [ -77.441663, 36.324353 ], [ -77.409427, 36.263549 ] ] ] } },
{ "type": "Feature", "properties": { "STATEFP": "37", "GEOID": "37085", "NAME": "Harnett", "ALAND": 1541299797 }, "geometry": { "type": "Polygon", "coordinates": [ [ [ -78.617114, 35.245718 ], [ -78.79428, 35.266101 ], [ -78.920211, 35.220276 ], [ -79.096299, 35.192012 ], [ -79.151255, 35.213699 ], [ -79.165108, 35.240925 ], [ -79.223021, 35.268133 ], [ -78.916067, 35.584102 ], [ -78.689517, 35.515934 ], [ -78.533053, 35.342951 ], [ -78.536061, 35.318653 ], [ -78.58353, 35.296814 ], [ -78.584639, 35.273312 ], [ -78.617114, 35.245718 ] ] ] } },
{ "type": "Feature", "properties": { "STATEFP": "37", "GEOID": "37087", "NAME": "Haywood", "ALAND": 1433713850 }, "geometry": { "type": "Polygon", "coordinates": [ [ [ -82.846399, 35.614417 ], [ -82.811266, 35.627084 ], [ -82.765938, 35.567622 ], [ -82.799637, 35.471034 ], [ -82.781691, 35.439542 ], [ -82.745246, 35.423453 ], [ -82.74562, 35.407345 ], [ -82.787649, 35.381126 ], [ -82.831871, 35.318388 ], [ -82.876866, 35.314504 ], [ -82.919858, 35.291811 ], [ -82.964725, 35.315289 ], [ -82.990185, 35.367446 ], [ -83.043724, 35.394395 ], [ -83.044365, 35.415097 ], [ -83.091435, 35.457531 ], [ -83.137714, 35.464076 ], [ -83.13863, 35.491239 ], [ -83.185898, 35.511825 ], [ -83.155835, 35.552622 ], [ -83.183541, 35.586317 ], [ -83.177098, 35.631955 ], [ -83.20243, 35.6445 ], [ -83.181977, 35.671327 ], [ -83.21513, 35.692337 ], [ -83.254257, 35.695593 ], [ -83.255289, 35.715677 ], [ -83.186389, 35.729885 ], [ -83.159585, 35.764651 ], [ -83.120608, 35.766431 ], [ -83.078503, 35.789675 ], [ -82.995989, 35.773082 ], [ -82.960153, 35.790725 ], [ -82.957176, 35.746843 ], [ -82.91765, 35.744808 ], [ -82.901071, 35.684929 ], [ -82.846399, 35.614417 ] ] ] } },
{ "type": "Feature", "properties": { "STATEFP": "37", "GEOID": "37089", "NAME": "Henderson", "ALAND": 965930095 }, "geometry": { "type": "Polygon", "coordinates": [ [ [ -82.548825, 35.444305 ], [ -82.532713, 35.416615 ], [ -82.53491, 35.444413 ], [ -82.470557, 35.445174 ], [ -82.417599, 35.474485 ], [ -82.363133, 35.46096 ], [ -82.369323, 35.485518 ], [ -82.3334, 35.500163 ], [ -82.265795, 35.467818 ], [ -82.28055, 35.442822 ], [ -82.261382, 35.388647 ], [ -82.346081, 35.286152 ], [ -82.353754, 35.190967 ], [ -82.369244, 35.180648 ], [ -82.393791, 35.215224 ], [ -82.43987, 35.165743 ], [ -82.457317, 35.163924 ], [ -82.460668, 35.177936 ], [ -82.527708, 35.155742 ], [ -82.545886, 35.164222 ], [ -82.572744, 35.144188 ], [ -82.585376, 35.151785 ], [ -82.619248, 35.303708 ], [ -82.745139, 35.422967 ], [ -82.673099, 35.459493 ], [ -82.621749, 35.435693 ], [ -82.570608, 35.431045 ], [ -82.548825, 35.444305 ] ] ] } },
{ "type": "Feature", "properties": { "STATEFP": "37", "GEOID": "37091", "NAME": "Hertford", "ALAND": 914689353 }, "geometry": { "type": "Polygon", "coordinates": [ [ [ -77.164377, 36.546329 ], [ -76.914349, 36.543645 ], [ -76.924991, 36.530744 ], [ -76.90708, 36.50925 ], [ -76.934362, 36.471269 ], [ -76.950606, 36.47079 ], [ -76.945388, 36.412377 ], [ -76.7602, 36.351672 ], [ -76.696619, 36.296254 ], [ -76.689462, 36.270984 ], [ -76.706584, 36.243796 ], [ -77.208468, 36.246578 ], [ -77.131339, 36.437806 ], [ -77.137014, 36.455908 ], [ -77.112338, 36.47772 ], [ -77.066348, 36.483167 ], [ -77.083427, 36.513201 ], [ -77.148531, 36.525086 ], [ -77.164377, 36.546329 ] ] ] } },
{ "type": "Feature", "properties": { "STATEFP": "37", "GEOID": "37093", "NAME": "Hoke", "ALAND": 1010491623 }, "geometry": { "type": "Polygon", "coordinates": [ [ [ -79.458751, 35.043639 ], [ -79.335477, 35.161588 ], [ -79.2429, 35.213796 ], [ -79.142844, 35.169012 ], [ -79.097551, 35.174233 ], [ -79.112921, 35.125651 ], [ -79.090291, 35.042031 ], [ -79.035556, 34.955197 ], [ -79.191391, 34.833717 ], [ -79.347868, 34.838553 ], [ -79.336923, 34.85379 ], [ -79.353132, 34.944329 ], [ -79.458751, 35.043639 ] ] ] } },
{ "type": "Feature", "properties": { "STATEFP": "37", "GEOID": "37095", "NAME": "Hyde", "ALAND": 1585958032 }, "geometry": { "type": "Polygon", "coordinates": [ [ [ -76.142023, 35.702851 ], [ -76.096682, 35.669581 ], [ -76.061095, 35.675222 ], [ -76.035564, 35.661495 ], [ -75.901342, 35.668952 ], [ -75.868393, 35.578104 ], [ -75.814021, 35.500182 ], [ -75.73662, 35.140565 ], [ -75.897876, 35.077122 ], [ -76.002959, 35.006392 ], [ -76.006557, 35.053869 ], [ -76.065774, 35.124937 ], [ -76.304136, 35.201453 ], [ -76.445418, 35.329264 ], [ -76.518674, 35.348002 ], [ -76.584042, 35.449142 ], [ -76.579458, 35.485201 ], [ -76.604106, 35.512386 ], [ -76.58668, 35.523254 ], [ -76.491192, 35.520857 ], [ -76.467761, 35.556504 ], [ -76.577569, 35.611243 ], [ -76.606119, 35.646733 ], [ -76.601852, 35.669906 ], [ -76.637513, 35.705215 ], [ -76.269247, 35.690754 ], [ -76.297899, 35.608895 ], [ -76.215744, 35.597998 ], [ -76.169503, 35.672514 ], [ -76.172594, 35.696884 ], [ -76.142023, 35.702851 ] ] ] } },
{ "type": "Feature", "properties": { "STATEFP": "37", "GEOID": "37097", "NAME": "Iredell", "ALAND": 1487784939 }, "geometry": { "type": "Polygon", "coordinates": [ [ [ -80.737249, 35.505801 ], [ -80.906723, 35.514785 ], [ -80.947344, 35.488473 ], [ -80.96038, 35.496151 ], [ -80.956509, 35.531716 ], [ -80.939667, 35.529203 ], [ -80.959739, 35.545964 ], [ -80.956373, 35.571776 ], [ -80.925515, 35.620946 ], [ -81.003189, 35.709166 ], [ -81.062639, 35.711621 ], [ -81.067863, 35.7381 ], [ -81.109507, 35.776594 ], [ -81.041339, 35.857855 ], [ -81.005541, 35.958287 ], [ -81.0034, 35.996737 ], [ -81.028833, 36.045652 ], [ -80.975675, 36.05881 ], [ -80.693197, 36.05126 ], [ -80.707837, 35.852897 ], [ -80.771582, 35.672163 ], [ -80.737249, 35.505801 ] ] ] } },
{ "type": "Feature", "properties": { "STATEFP": "37", "GEOID": "37099", "NAME": "Jackson", "ALAND": 1271968586 }, "geometry": { "type": "Polygon", "coordinates": [ [ [ -83.363766, 35.426923 ], [ -83.345658, 35.473367 ], [ -83.317882, 35.465302 ], [ -83.261664, 35.514566 ], [ -83.216248, 35.526005 ], [ -83.13863, 35.491239 ], [ -83.137714, 35.464076 ], [ -83.091435, 35.457531 ], [ -83.044365, 35.415097 ], [ -83.043724, 35.394395 ], [ -82.990185, 35.367446 ], [ -82.964725, 35.315289 ], [ -82.927417, 35.302924 ], [ -82.928428, 35.234893 ], [ -82.996627, 35.163578 ], [ -82.976453, 35.133321 ], [ -83.056934, 35.053864 ], [ -83.008531, 35.027394 ], [ -83.108568, 35.001354 ], [ -83.131122, 35.039261 ], [ -83.171212, 35.060516 ], [ -83.143257, 35.077927 ], [ -83.147485, 35.093383 ], [ -83.223796, 35.157386 ], [ -83.224332, 35.238645 ], [ -83.28188, 35.228965 ], [ -83.31593, 35.264796 ], [ -83.321087, 35.311888 ], [ -83.340561, 35.333064 ], [ -83.340017, 35.395475 ], [ -83.363766, 35.426923 ] ] ] } },
{ "type": "Feature", "properties": { "STATEFP": "37", "GEOID": "37101", "NAME": "Johnston", "ALAND": 2051314542 }, "geometry": { "type": "Polygon", "coordinates": [ [ [ -78.153243, 35.350671 ], [ -78.289711, 35.315077 ], [ -78.30658, 35.287604 ], [ -78.411734, 35.254663 ], [ -78.491897, 35.263319 ], [ -78.538349, 35.31641 ], [ -78.533053, 35.342951 ], [ -78.567695, 35.367688 ], [ -78.62695, 35.457981 ], [ -78.660555, 35.496245 ], [ -78.708902, 35.519458 ], [ -78.469201, 35.706623 ], [ -78.255973, 35.81812 ], [ -78.232876, 35.751427 ], [ -78.219059, 35.755068 ], [ -78.209369, 35.73064 ], [ -78.161174, 35.71274 ], [ -78.125587, 35.603111 ], [ -78.064784, 35.585263 ], [ -78.15491, 35.41781 ], [ -78.153243, 35.350671 ] ] ] } },
{ "type": "Feature", "properties": { "STATEFP": "37", "GEOID": "37103", "NAME": "Jones", "ALAND": 1220836956 }, "geometry": { "type": "Polygon", "coordinates": [ [ [ -77.473692, 35.228985 ], [ -77.187679, 35.081086 ], [ -77.180592, 35.05522 ], [ -77.109656, 35.068609 ], [ -77.108851, 34.83078 ], [ -77.047249, 34.836416 ], [ -77.090731, 34.799316 ], [ -77.161515, 34.795159 ], [ -77.172743, 34.780612 ], [ -77.196272, 34.810346 ], [ -77.181253, 34.836211 ], [ -77.201938, 34.834499 ], [ -77.222003, 34.886997 ], [ -77.268352, 34.926024 ], [ -77.331997, 34.939083 ], [ -77.36314, 34.925825 ], [ -77.366768, 34.90865 ], [ -77.502771, 34.969635 ], [ -77.638967, 34.98446 ], [ -77.674805, 34.9739 ], [ -77.731026, 35.008138 ], [ -77.601282, 35.071368 ], [ -77.507463, 35.172814 ], [ -77.527182, 35.243001 ], [ -77.473692, 35.228985 ] ] ] } },
{ "type": "Feature", "properties": { "STATEFP": "37", "GEOID": "37105", "NAME": "Lee", "ALAND": 660633151 }, "geometry": { "type": "Polygon", "coordinates": [ [ [ -78.96964, 35.521669 ], [ -79.183556, 35.307161 ], [ -79.27322, 35.352144 ], [ -79.289561, 35.400439 ], [ -79.329723, 35.423449 ], [ -79.359765, 35.469675 ], [ -79.335878, 35.497973 ], [ -79.351446, 35.515838 ], [ -79.312086, 35.53046 ], [ -79.323909, 35.543839 ], [ -79.299282, 35.553435 ], [ -79.267475, 35.532756 ], [ -79.242695, 35.57026 ], [ -79.219335, 35.566489 ], [ -79.224479, 35.550811 ], [ -79.199886, 35.558558 ], [ -79.201055, 35.576475 ], [ -79.142521, 35.622731 ], [ -79.100144, 35.623613 ], [ -79.05249, 35.596075 ], [ -79.024001, 35.548377 ], [ -78.96964, 35.521669 ] ] ] } },
{ "type": "Feature", "properties": { "STATEFP": "37", "GEOID": "37107", "NAME": "Lenoir", "ALAND": 1033630007 }, "geometry": { "type": "Polygon", "coordinates": [ [ [ -77.598044, 35.074875 ], [ -77.731026, 35.008138 ], [ -77.746037, 35.02234 ], [ -77.749572, 35.10861 ], [ -77.769177, 35.145576 ], [ -77.834249, 35.177846 ], [ -77.82418, 35.343811 ], [ -77.806248, 35.368754 ], [ -77.697516, 35.377097 ], [ -77.680052, 35.34774 ], [ -77.63793, 35.354202 ], [ -77.61415, 35.377705 ], [ -77.589111, 35.373832 ], [ -77.534173, 35.398104 ], [ -77.528338, 35.414336 ], [ -77.484241, 35.413578 ], [ -77.474426, 35.426771 ], [ -77.448165, 35.371541 ], [ -77.425905, 35.349347 ], [ -77.408074, 35.353347 ], [ -77.393142, 35.346855 ], [ -77.391026, 35.339533 ], [ -77.431253, 35.32983 ], [ -77.449136, 35.301839 ], [ -77.432831, 35.249978 ], [ -77.473692, 35.228985 ], [ -77.527182, 35.243001 ], [ -77.507463, 35.172814 ], [ -77.598044, 35.074875 ] ] ] } },
{ "type": "Feature", "properties": { "STATEFP": "37", "GEOID": "37109", "NAME": "Lincoln", "ALAND": 766251553 }, "geometry": { "type": "Polygon", "coordinates": [ [ [ -81.537485, 35.564431 ], [ -80.960025, 35.54702 ], [ -80.939667, 35.529203 ], [ -80.956327, 35.531947 ], [ -80.963521, 35.505961 ], [ -80.942371, 35.456449 ], [ -80.95486, 35.400078 ], [ -81.4556, 35.419811 ], [ -81.513004, 35.523317 ], [ -81.509218, 35.550352 ], [ -81.537485, 35.564431 ] ] ] } },
{ "type": "Feature", "properties": { "STATEFP": "37", "GEOID": "37111", "NAME": "McDowell", "ALAND": 1139476684 }, "geometry": { "type": "Polygon", "coordinates": [ [ [ -82.002733, 35.551811 ], [ -82.039843, 35.532704 ], [ -82.150538, 35.518002 ], [ -82.251251, 35.559943 ], [ -82.291026, 35.591322 ], [ -82.264511, 35.61767 ], [ -82.295007, 35.684317 ], [ -82.281218, 35.70217 ], [ -82.258239, 35.698693 ], [ -82.193402, 35.735314 ], [ -82.160474, 35.774258 ], [ -82.161889, 35.797836 ], [ -82.099405, 35.851671 ], [ -82.048648, 35.853025 ], [ -82.022442, 35.884983 ], [ -81.999409, 35.874007 ], [ -81.980337, 35.884716 ], [ -81.982163, 35.911218 ], [ -81.954427, 35.926759 ], [ -81.962987, 35.941783 ], [ -81.943188, 35.96005 ], [ -81.906652, 35.883376 ], [ -81.920509, 35.847079 ], [ -81.986939, 35.806923 ], [ -81.869388, 35.719624 ], [ -81.824122, 35.574983 ], [ -81.842468, 35.542263 ], [ -81.967619, 35.526007 ], [ -82.002733, 35.551811 ] ] ] } },
{ "type": "Feature", "properties": { "STATEFP": "37", "GEOID": "37113", "NAME": "Macon", "ALAND": 1335304967 }, "geometry": { "type": "Polygon", "coordinates": [ [ [ -83.108613, 35.000659 ], [ -83.520764, 34.996612 ], [ -83.521326, 35.01828 ], [ -83.558412, 35.039134 ], [ -83.566947, 35.070982 ], [ -83.618299, 35.106798 ], [ -83.618928, 35.12825 ], [ -83.635062, 35.121221 ], [ -83.640172, 35.138719 ], [ -83.654929, 35.135808 ], [ -83.654976, 35.158192 ], [ -83.730849, 35.148375 ], [ -83.731639, 35.178411 ], [ -83.711338, 35.195659 ], [ -83.728825, 35.200862 ], [ -83.693788, 35.228718 ], [ -83.702652, 35.248483 ], [ -83.680264, 35.279387 ], [ -83.490276, 35.305547 ], [ -83.467382, 35.297778 ], [ -83.432586, 35.325155 ], [ -83.410918, 35.316528 ], [ -83.339609, 35.330993 ], [ -83.293276, 35.235186 ], [ -83.224332, 35.238645 ], [ -83.223796, 35.157386 ], [ -83.147714, 35.093763 ], [ -83.143257, 35.077927 ], [ -83.171275, 35.060634 ], [ -83.131122, 35.039261 ], [ -83.108613, 35.000659 ] ] ] } },
{ "type": "Feature", "properties": { "STATEFP": "37", "GEOID": "37115", "NAME": "Madison", "ALAND": 1164498324 }, "geometry": { "type": "Polygon", "coordinates": [ [ [ -82.523148, 35.798342 ], [ -82.67764, 35.734655 ], [ -82.669608, 35.725794 ], [ -82.712131, 35.732994 ], [ -82.713963, 35.717652 ], [ -82.730975, 35.722403 ], [ -82.804852, 35.686091 ], [ -82.848652, 35.701756 ], [ -82.884269, 35.678128 ], [ -82.901071, 35.684929 ], [ -82.91765, 35.744808 ], [ -82.957176, 35.746843 ], [ -82.9629, 35.794924 ], [ -82.916343, 35.841663 ], [ -82.920831, 35.868178 ], [ -82.896081, 35.879544 ], [ -82.919835, 35.928886 ], [ -82.90182, 35.92696 ], [ -82.898182, 35.94523 ], [ -82.874293, 35.95283 ], [ -82.821948, 35.92183 ], [ -82.805085, 35.927137 ], [ -82.775086, 35.971829 ], [ -82.775758, 36.001051 ], [ -82.632764, 36.065917 ], [ -82.590786, 36.03364 ], [ -82.614928, 36.002046 ], [ -82.610703, 35.967203 ], [ -82.557988, 35.953873 ], [ -82.505425, 35.977432 ], [ -82.480137, 35.949191 ], [ -82.494781, 35.909484 ], [ -82.450178, 35.897955 ], [ -82.417552, 35.859363 ], [ -82.412346, 35.814719 ], [ -82.523148, 35.798342 ] ] ] } },
{ "type": "Feature", "properties": { "STATEFP": "37", "GEOID": "37117", "NAME": "Martin", "ALAND": 1182102538 }, "geometry": { "type": "Polygon", "coordinates": [ [ [ -77.408381, 35.999469 ], [ -77.327569, 36.071361 ], [ -77.320792, 36.056479 ], [ -77.206525, 36.007131 ], [ -77.213328, 35.992533 ], [ -77.196064, 35.992369 ], [ -77.188515, 35.957501 ], [ -77.202282, 35.947418 ], [ -77.186393, 35.931092 ], [ -77.130876, 35.940756 ], [ -77.123781, 35.926138 ], [ -77.093662, 35.924815 ], [ -77.070637, 35.943839 ], [ -77.044033, 35.943448 ], [ -77.022126, 35.890921 ], [ -77.045332, 35.875173 ], [ -77.035613, 35.857502 ], [ -77.00525, 35.858433 ], [ -76.925543, 35.899234 ], [ -76.893027, 35.863967 ], [ -76.903949, 35.823831 ], [ -76.882571, 35.811866 ], [ -76.833136, 35.852167 ], [ -76.830189, 35.885866 ], [ -76.760598, 35.864887 ], [ -76.789238, 35.838108 ], [ -76.817281, 35.748233 ], [ -76.847264, 35.719982 ], [ -76.985842, 35.658848 ], [ -77.215005, 35.759792 ], [ -77.259792, 35.765222 ], [ -77.2552, 35.786352 ], [ -77.350369, 35.819228 ], [ -77.342418, 35.905262 ], [ -77.408381, 35.999469 ] ] ] } },
{ "type": "Feature", "properties": { "STATEFP": "37", "GEOID": "37119", "NAME": "Mecklenburg", "ALAND": 1356149121 }, "geometry": { "type": "Polygon", "coordinates": [ [ [ -80.74211, 35.055679 ], [ -80.840278, 35.001692 ], [ -80.934739, 35.107318 ], [ -81.041496, 35.044713 ], [ -81.057672, 35.061867 ], [ -81.05155, 35.096981 ], [ -81.032367, 35.109619 ], [ -81.047581, 35.145196 ], [ -81.005806, 35.157023 ], [ -81.01505, 35.268655 ], [ -81.001161, 35.304928 ], [ -80.972238, 35.350615 ], [ -80.923042, 35.359917 ], [ -80.960161, 35.375413 ], [ -80.976447, 35.36416 ], [ -80.986835, 35.379014 ], [ -80.954811, 35.39381 ], [ -80.947344, 35.488473 ], [ -80.906723, 35.514785 ], [ -80.784167, 35.506017 ], [ -80.752167, 35.41405 ], [ -80.766414, 35.401478 ], [ -80.693061, 35.346379 ], [ -80.666683, 35.26819 ], [ -80.550349, 35.208412 ], [ -80.74211, 35.055679 ] ] ] } },
{ "type": "Feature", "properties": { "STATEFP": "37", "GEOID": "37121", "NAME": "Mitchell", "ALAND": 573036227 }, "geometry": { "type": "Polygon", "coordinates": [ [ [ -82.416738, 36.072827 ], [ -82.355361, 36.115373 ], [ -82.28982, 36.135596 ], [ -82.245097, 36.131249 ], [ -82.221893, 36.157026 ], [ -82.177217, 36.142373 ], [ -82.148581, 36.149859 ], [ -82.130225, 36.104559 ], [ -82.075851, 36.095825 ], [ -82.039175, 36.007774 ], [ -82.059039, 35.991001 ], [ -82.048629, 35.964458 ], [ -81.981954, 35.911361 ], [ -81.980215, 35.884849 ], [ -81.999409, 35.874007 ], [ -82.022159, 35.885104 ], [ -82.048039, 35.853229 ], [ -82.098251, 35.852133 ], [ -82.121194, 35.824617 ], [ -82.148317, 35.822728 ], [ -82.145202, 35.931443 ], [ -82.169724, 35.928617 ], [ -82.197665, 35.952207 ], [ -82.185918, 35.960147 ], [ -82.197574, 36.015107 ], [ -82.252115, 36.008683 ], [ -82.25144, 35.988933 ], [ -82.299674, 36.045684 ], [ -82.312435, 36.026104 ], [ -82.338201, 36.030088 ], [ -82.351958, 36.084519 ], [ -82.376574, 36.070855 ], [ -82.39866, 36.081911 ], [ -82.416738, 36.072827 ] ] ] } },
{ "type": "Feature", "properties": { "STATEFP": "37", "GEOID": "37123", "NAME": "Montgomery", "ALAND": 1273075626 }, "geometry": { "type": "Polygon", "coordinates": [ [ [ -79.909679, 35.162517 ], [ -79.983399, 35.15851 ], [ -80.022939, 35.137163 ], [ -80.075365, 35.143081 ], [ -80.053302, 35.178607 ], [ -80.098411, 35.258086 ], [ -80.051225, 35.371537 ], [ -80.093711, 35.40203 ], [ -80.109914, 35.460982 ], [ -80.161736, 35.475208 ], [ -80.182559, 35.504151 ], [ -79.767957, 35.511484 ], [ -79.711896, 35.275608 ], [ -79.698007, 35.251521 ], [ -79.672315, 35.244714 ], [ -79.657578, 35.191596 ], [ -79.614304, 35.163679 ], [ -79.642129, 35.157717 ], [ -79.694365, 35.179642 ], [ -79.851268, 35.183855 ], [ -79.909679, 35.162517 ] ] ] } },
{ "type": "Feature", "properties": { "STATEFP": "37", "GEOID": "37125", "NAME": "Moore", "ALAND": 1806846432 }, "geometry": { "type": "Polygon", "coordinates": [ [ [ -79.335437, 35.161581 ], [ -79.458751, 35.043639 ], [ -79.499181, 35.063931 ], [ -79.576204, 35.070051 ], [ -79.573353, 35.122679 ], [ -79.657578, 35.191596 ], [ -79.672315, 35.244714 ], [ -79.698007, 35.251521 ], [ -79.711896, 35.275608 ], [ -79.767957, 35.511484 ], [ -79.350073, 35.518002 ], [ -79.33592, 35.497754 ], [ -79.359822, 35.469883 ], [ -79.329723, 35.423449 ], [ -79.289561, 35.400439 ], [ -79.265713, 35.345279 ], [ -79.183556, 35.307161 ], [ -79.223021, 35.268133 ], [ -79.165108, 35.240925 ], [ -79.151255, 35.213699 ], [ -79.095808, 35.192068 ], [ -79.100893, 35.171886 ], [ -79.142711, 35.168984 ], [ -79.243637, 35.21378 ], [ -79.335437, 35.161581 ] ] ] } },
{ "type": "Feature", "properties": { "STATEFP": "37", "GEOID": "37127", "NAME": "Nash", "ALAND": 1399742907 }, "geometry": { "type": "Polygon", "coordinates": [ [ [ -77.873867, 35.849731 ], [ -78.194805, 35.727985 ], [ -78.250927, 35.773797 ], [ -78.255973, 35.81812 ], [ -78.006551, 36.202633 ], [ -77.978185, 36.17528 ], [ -77.972939, 36.194331 ], [ -77.951216, 36.180565 ], [ -77.944004, 36.192592 ], [ -77.923918, 36.188906 ], [ -77.922682, 36.166342 ], [ -77.88724, 36.14384 ], [ -77.808066, 36.138221 ], [ -77.804335, 36.149731 ], [ -77.774138, 36.142529 ], [ -77.750068, 36.157468 ], [ -77.721332, 36.133795 ], [ -77.697956, 36.15315 ], [ -77.844737, 35.837618 ], [ -77.873867, 35.849731 ] ] ] } },
{ "type": "Feature", "properties": { "STATEFP": "37", "GEOID": "37129", "NAME": "New Hanover", "ALAND": 497859414 }, "geometry": { "type": "Polygon", "coordinates": [ [ [ -77.722953, 34.209997 ], [ -77.785555, 34.125171 ], [ -77.894246, 33.878655 ], [ -77.897011, 33.7868 ], [ -77.948479, 33.971274 ], [ -77.931103, 34.058884 ], [ -77.956605, 34.234491 ], [ -78.002012, 34.273069 ], [ -77.990212, 34.281669 ], [ -78.015913, 34.290269 ], [ -78.006241, 34.319512 ], [ -78.026033, 34.317992 ], [ -78.029922, 34.331768 ], [ -77.993202, 34.336828 ], [ -77.978035, 34.356952 ], [ -77.986995, 34.372056 ], [ -77.960796, 34.382773 ], [ -77.93499, 34.358024 ], [ -77.917079, 34.375726 ], [ -77.88704, 34.364243 ], [ -77.822995, 34.389359 ], [ -77.804729, 34.376784 ], [ -77.812663, 34.359005 ], [ -77.739476, 34.292944 ], [ -77.710488, 34.297958 ], [ -77.675276, 34.25313 ], [ -77.722953, 34.209997 ] ] ] } },
{ "type": "Feature", "properties": { "STATEFP": "37", "GEOID": "37131", "NAME": "Northampton", "ALAND": 1390073547 }, "geometry": { "type": "Polygon", "coordinates": [ [ [ -77.899773, 36.544596 ], [ -77.170545, 36.54728 ], [ -77.148531, 36.525086 ], [ -77.092796, 36.51817 ], [ -77.066381, 36.496863 ], [ -77.070955, 36.479407 ], [ -77.112338, 36.47772 ], [ -77.137014, 36.455908 ], [ -77.131339, 36.437806 ], [ -77.208289, 36.246774 ], [ -77.228565, 36.214411 ], [ -77.297906, 36.208105 ], [ -77.295256, 36.165748 ], [ -77.383611, 36.208206 ], [ -77.376934, 36.245047 ], [ -77.409684, 36.2638 ], [ -77.441663, 36.324353 ], [ -77.542075, 36.303176 ], [ -77.571075, 36.313805 ], [ -77.585599, 36.337344 ], [ -77.547566, 36.372483 ], [ -77.549481, 36.412052 ], [ -77.626019, 36.445699 ], [ -77.644509, 36.480484 ], [ -77.767914, 36.480045 ], [ -77.817453, 36.500482 ], [ -77.899524, 36.504259 ], [ -77.899773, 36.544596 ] ] ] } },
{ "type": "Feature", "properties": { "STATEFP": "37", "GEOID": "37133", "NAME": "Onslow", "ALAND": 1973791551 }, "geometry": { "type": "Polygon", "coordinates": [ [ [ -77.117198, 34.584367 ], [ -77.484538, 34.399705 ], [ -77.54098, 34.464846 ], [ -77.576101, 34.476475 ], [ -77.680127, 34.720595 ], [ -77.651045, 34.923341 ], [ -77.674805, 34.9739 ], [ -77.638967, 34.98446 ], [ -77.502771, 34.969635 ], [ -77.366768, 34.90865 ], [ -77.36314, 34.925825 ], [ -77.331997, 34.939083 ], [ -77.285157, 34.931256 ], [ -77.222003, 34.886997 ], [ -77.201752, 34.834322 ], [ -77.181253, 34.836211 ], [ -77.196059, 34.809671 ], [ -77.153502, 34.776491 ], [ -77.157914, 34.766036 ], [ -77.125646, 34.756707 ], [ -77.105995, 34.710328 ], [ -77.113529, 34.680541 ], [ -77.096073, 34.67124 ], [ -77.11316, 34.651027 ], [ -77.117198, 34.584367 ] ] ] } },
{ "type": "Feature", "properties": { "STATEFP": "37", "GEOID": "37135", "NAME": "Orange", "ALAND": 1029631957 }, "geometry": { "type": "Polygon", "coordinates": [ [ [ -79.268434, 35.91093 ], [ -79.257952, 36.243445 ], [ -78.950597, 36.23932 ], [ -79.016305, 35.86321 ], [ -79.249538, 35.87681 ], [ -79.268434, 35.91093 ] ] ] } },
{ "type": "Feature", "properties": { "STATEFP": "37", "GEOID": "37137", "NAME": "Pamlico", "ALAND": 871570771 }, "geometry": { "type": "Polygon", "coordinates": [ [ [ -76.304136, 35.201453 ], [ -76.780586, 34.950434 ], [ -76.907508, 34.987836 ], [ -76.967297, 35.040655 ], [ -76.936222, 35.061725 ], [ -76.930865, 35.116819 ], [ -76.987337, 35.151085 ], [ -76.962434, 35.198627 ], [ -76.895919, 35.253889 ], [ -76.845505, 35.216059 ], [ -76.632561, 35.235324 ], [ -76.612165, 35.279409 ], [ -76.617033, 35.330871 ], [ -76.590497, 35.361857 ], [ -76.454738, 35.334376 ], [ -76.304136, 35.201453 ] ] ] } },
{ "type": "Feature", "properties": { "STATEFP": "37", "GEOID": "37139", "NAME": "Pasquotank", "ALAND": 587610261 }, "geometry": { "type": "Polygon", "coordinates": [ [ [ -76.447632, 36.363738 ], [ -76.491336, 36.510677 ], [ -76.363427, 36.429123 ], [ -76.322172, 36.427456 ], [ -76.291542, 36.386629 ], [ -76.258891, 36.384274 ], [ -76.257177, 36.363544 ], [ -76.231329, 36.37208 ], [ -76.215978, 36.327675 ], [ -76.181276, 36.321939 ], [ -76.217085, 36.298803 ], [ -76.137603, 36.273326 ], [ -76.09827, 36.227627 ], [ -76.067591, 36.2153 ], [ -76.02939, 36.158819 ], [ -76.022607, 36.096725 ], [ -76.157953, 36.059517 ], [ -76.178743, 36.111193 ], [ -76.271928, 36.185723 ], [ -76.290244, 36.223358 ], [ -76.374985, 36.258779 ], [ -76.447632, 36.363738 ] ] ] } },
{ "type": "Feature", "properties": { "STATEFP": "37", "GEOID": "37141", "NAME": "Pender", "ALAND": 2256656680 }, "geometry": { "type": "Polygon", "coordinates": [ [ [ -77.680127, 34.720595 ], [ -77.576101, 34.476475 ], [ -77.54098, 34.464846 ], [ -77.484538, 34.399705 ], [ -77.675276, 34.25313 ], [ -77.710488, 34.297958 ], [ -77.739198, 34.292752 ], [ -77.812663, 34.359005 ], [ -77.804729, 34.376784 ], [ -77.822995, 34.389359 ], [ -77.88704, 34.364243 ], [ -77.917079, 34.375726 ], [ -77.93499, 34.358024 ], [ -77.962194, 34.382855 ], [ -77.987666, 34.371144 ], [ -77.978035, 34.356952 ], [ -77.993202, 34.336828 ], [ -78.033893, 34.330149 ], [ -78.13673, 34.371813 ], [ -78.174692, 34.351246 ], [ -78.202532, 34.353306 ], [ -78.253018, 34.391543 ], [ -78.176501, 34.465356 ], [ -78.252376, 34.504657 ], [ -78.272536, 34.537978 ], [ -78.11236, 34.722432 ], [ -78.012681, 34.73263 ], [ -77.980983, 34.713891 ], [ -77.680127, 34.720595 ] ] ] } },
{ "type": "Feature", "properties": { "STATEFP": "37", "GEOID": "37143", "NAME": "Perquimans", "ALAND": 640173980 }, "geometry": { "type": "Polygon", "coordinates": [ [ [ -76.590107, 36.238862 ], [ -76.572613, 36.258073 ], [ -76.556881, 36.355204 ], [ -76.453711, 36.378092 ], [ -76.37488, 36.258654 ], [ -76.290244, 36.223358 ], [ -76.271928, 36.185723 ], [ -76.178743, 36.111193 ], [ -76.157953, 36.059517 ], [ -76.333654, 36.019872 ], [ -76.396794, 36.026443 ], [ -76.403882, 36.074051 ], [ -76.57085, 36.10788 ], [ -76.590107, 36.238862 ] ] ] } },
{ "type": "Feature", "properties": { "STATEFP": "37", "GEOID": "37145", "NAME": "Person", "ALAND": 1016154888 }, "geometry": { "type": "Polygon", "coordinates": [ [ [ -79.153997, 36.241875 ], [ -79.13832, 36.541975 ], [ -78.796274, 36.541741 ], [ -78.802335, 36.235794 ], [ -79.153997, 36.241875 ] ] ] } },
{ "type": "Feature", "properties": { "STATEFP": "37", "GEOID": "37147", "NAME": "Pitt", "ALAND": 1689620170 }, "geometry": { "type": "Polygon", "coordinates": [ [ [ -77.700661, 35.652316 ], [ -77.472286, 35.801095 ], [ -77.424701, 35.805662 ], [ -77.390154, 35.833062 ], [ -77.2552, 35.786352 ], [ -77.259792, 35.765222 ], [ -77.178715, 35.739394 ], [ -77.170785, 35.716463 ], [ -77.18495, 35.720478 ], [ -77.195772, 35.699779 ], [ -77.169911, 35.684559 ], [ -77.174154, 35.635592 ], [ -77.084644, 35.552551 ], [ -77.12709, 35.554081 ], [ -77.17621, 35.5191 ], [ -77.167067, 35.496923 ], [ -77.189261, 35.416594 ], [ -77.201559, 35.398664 ], [ -77.227127, 35.399845 ], [ -77.237944, 35.361542 ], [ -77.260548, 35.351743 ], [ -77.29434, 35.379137 ], [ -77.353193, 35.327397 ], [ -77.425682, 35.34924 ], [ -77.448165, 35.371541 ], [ -77.511587, 35.497035 ], [ -77.503408, 35.517975 ], [ -77.557803, 35.53191 ], [ -77.61037, 35.567552 ], [ -77.700661, 35.652316 ] ] ] } },
{ "type": "Feature", "properties": { "STATEFP": "37", "GEOID": "37149", "NAME": "Polk", "ALAND": 615606325 }, "geometry": { "type": "Polygon", "coordinates": [ [ [ -81.969307, 35.187432 ], [ -82.352695, 35.190153 ], [ -82.359152, 35.244489 ], [ -82.346, 35.286294 ], [ -82.261305, 35.393198 ], [ -82.159633, 35.409333 ], [ -82.109418, 35.383316 ], [ -81.968788, 35.257764 ], [ -81.969307, 35.187432 ] ] ] } },
{ "type": "Feature", "properties": { "STATEFP": "37", "GEOID": "37151", "NAME": "Randolph", "ALAND": 2026239779 }, "geometry": { "type": "Polygon", "coordinates": [ [ [ -79.555804, 35.515039 ], [ -80.066842, 35.505661 ], [ -80.046869, 35.920693 ], [ -79.541728, 35.899851 ], [ -79.555804, 35.515039 ] ] ] } },
{ "type": "Feature", "properties": { "STATEFP": "37", "GEOID": "37153", "NAME": "Richmond", "ALAND": 1226849527 }, "geometry": { "type": "Polygon", "coordinates": [ [ [ -80.075676, 35.140682 ], [ -80.022753, 35.137191 ], [ -79.984655, 35.158172 ], [ -79.89861, 35.161714 ], [ -79.851268, 35.183855 ], [ -79.679755, 35.177352 ], [ -79.642129, 35.157717 ], [ -79.614304, 35.163679 ], [ -79.588131, 35.138094 ], [ -79.568263, 35.064836 ], [ -79.499181, 35.063931 ], [ -79.458751, 35.043639 ], [ -79.573423, 34.99221 ], [ -79.584787, 34.945385 ], [ -79.561856, 34.91035 ], [ -79.626767, 34.851911 ], [ -79.614045, 34.815309 ], [ -79.634571, 34.825493 ], [ -79.692944, 34.805155 ], [ -79.927412, 34.806734 ], [ -79.900462, 34.857779 ], [ -79.848688, 34.902608 ], [ -79.872303, 34.950371 ], [ -79.864793, 34.979988 ], [ -79.900627, 35.005737 ], [ -79.876189, 35.043448 ], [ -79.908983, 35.066963 ], [ -79.926537, 35.117285 ], [ -79.958475, 35.113719 ], [ -79.998308, 35.085365 ], [ -80.067719, 35.111712 ], [ -80.075676, 35.140682 ] ] ] } },
{ "type": "Feature", "properties": { "STATEFP": "37", "GEOID": "37155", "NAME": "Robeson", "ALAND": 2453480732 }, "geometry": { "type": "Polygon", "coordinates": [ [ [ -79.191391, 34.833717 ], [ -79.038747, 34.952715 ], [ -78.95486, 34.913266 ], [ -78.883339, 34.812121 ], [ -78.854248, 34.73549 ], [ -78.805431, 34.686603 ], [ -78.836045, 34.593416 ], [ -78.862659, 34.562227 ], [ -78.846338, 34.499813 ], [ -78.906854, 34.455841 ], [ -78.959775, 34.442982 ], [ -78.969736, 34.395211 ], [ -79.011611, 34.380887 ], [ -79.009079, 34.352828 ], [ -79.027112, 34.353068 ], [ -79.038471, 34.313138 ], [ -79.071211, 34.299342 ], [ -79.461506, 34.630379 ], [ -79.330861, 34.773974 ], [ -79.357415, 34.818963 ], [ -79.348832, 34.838855 ], [ -79.191391, 34.833717 ] ] ] } },
{ "type": "Feature", "properties": { "STATEFP": "37", "GEOID": "37157", "NAME": "Rockingham", "ALAND": 1465006557 }, "geometry": { "type": "Polygon", "coordinates": [ [ [ -79.513638, 36.540902 ], [ -79.53241, 36.241463 ], [ -80.035119, 36.257184 ], [ -80.027339, 36.54248 ], [ -79.513638, 36.540902 ] ] ] } },
{ "type": "Feature", "properties": { "STATEFP": "37", "GEOID": "37159", "NAME": "Rowan", "ALAND": 1325062503 }, "geometry": { "type": "Polygon", "coordinates": [ [ [ -80.771582, 35.672163 ], [ -80.691744, 35.8635 ], [ -80.570382, 35.816296 ], [ -80.508511, 35.774521 ], [ -80.478299, 35.774771 ], [ -80.453043, 35.734368 ], [ -80.335177, 35.720789 ], [ -80.330602, 35.678799 ], [ -80.20886, 35.581334 ], [ -80.182866, 35.503274 ], [ -80.737249, 35.505801 ], [ -80.771582, 35.672163 ] ] ] } },
{ "type": "Feature", "properties": { "STATEFP": "37", "GEOID": "37161", "NAME": "Rutherford", "ALAND": 1464475268 }, "geometry": { "type": "Polygon", "coordinates": [ [ [ -82.233203, 35.519402 ], [ -82.039843, 35.532704 ], [ -82.002783, 35.551847 ], [ -81.967619, 35.526007 ], [ -81.842468, 35.542263 ], [ -81.822132, 35.580513 ], [ -81.772182, 35.592623 ], [ -81.753407, 35.613588 ], [ -81.717287, 35.604579 ], [ -81.691989, 35.580041 ], [ -81.702853, 35.357304 ], [ -81.768102, 35.180611 ], [ -81.969348, 35.187217 ], [ -81.968788, 35.257764 ], [ -82.123033, 35.393372 ], [ -82.159872, 35.409349 ], [ -82.18515, 35.396619 ], [ -82.270121, 35.400356 ], [ -82.280146, 35.444976 ], [ -82.265795, 35.467818 ], [ -82.2425, 35.467838 ], [ -82.224336, 35.498269 ], [ -82.233203, 35.519402 ] ] ] } },
{ "type": "Feature", "properties": { "STATEFP": "37", "GEOID": "37163", "NAME": "Sampson", "ALAND": 2449952011 }, "geometry": { "type": "Polygon", "coordinates": [ [ [ -78.418364, 35.255278 ], [ -78.30658, 35.287604 ], [ -78.246217, 35.225996 ], [ -78.161845, 35.204323 ], [ -78.171845, 35.093528 ], [ -78.147129, 34.902506 ], [ -78.198642, 34.741637 ], [ -78.135194, 34.710201 ], [ -78.114007, 34.721795 ], [ -78.113472, 34.707219 ], [ -78.15652, 34.67907 ], [ -78.254441, 34.553595 ], [ -78.266015, 34.583719 ], [ -78.30324, 34.600531 ], [ -78.322393, 34.628895 ], [ -78.311424, 34.641226 ], [ -78.325485, 34.669686 ], [ -78.373405, 34.699208 ], [ -78.390859, 34.749737 ], [ -78.487727, 34.836407 ], [ -78.544485, 34.914821 ], [ -78.646551, 34.99149 ], [ -78.672286, 35.085244 ], [ -78.639009, 35.116994 ], [ -78.652539, 35.121014 ], [ -78.629862, 35.172485 ], [ -78.646658, 35.198119 ], [ -78.624516, 35.203419 ], [ -78.633188, 35.213719 ], [ -78.581876, 35.298125 ], [ -78.538349, 35.31641 ], [ -78.491897, 35.263319 ], [ -78.418364, 35.255278 ] ] ] } },
{ "type": "Feature", "properties": { "STATEFP": "37", "GEOID": "37165", "NAME": "Scotland", "ALAND": 826569986 }, "geometry": { "type": "Polygon", "coordinates": [ [ [ -79.585618, 34.954745 ], [ -79.573423, 34.99221 ], [ -79.458376, 35.043756 ], [ -79.353132, 34.944329 ], [ -79.336923, 34.85379 ], [ -79.357721, 34.820532 ], [ -79.330861, 34.773974 ], [ -79.461506, 34.630379 ], [ -79.676494, 34.805065 ], [ -79.692944, 34.805155 ], [ -79.634571, 34.825493 ], [ -79.625644, 34.817895 ], [ -79.614045, 34.815309 ], [ -79.626767, 34.851911 ], [ -79.561856, 34.91035 ], [ -79.585618, 34.954745 ] ] ] } },
{ "type": "Feature", "properties": { "STATEFP": "37", "GEOID": "37167", "NAME": "Stanly", "ALAND": 1023253139 }, "geometry": { "type": "Polygon", "coordinates": [ [ [ -80.093966, 35.287087 ], [ -80.092768, 35.239295 ], [ -80.053302, 35.178607 ], [ -80.075365, 35.143081 ], [ -80.114523, 35.194302 ], [ -80.135544, 35.167729 ], [ -80.15726, 35.173567 ], [ -80.161659, 35.148292 ], [ -80.197803, 35.166654 ], [ -80.22469, 35.156099 ], [ -80.254346, 35.211294 ], [ -80.356982, 35.16494 ], [ -80.370122, 35.179786 ], [ -80.440436, 35.161076 ], [ -80.505297, 35.183299 ], [ -80.295421, 35.50292 ], [ -80.182559, 35.504151 ], [ -80.161736, 35.475208 ], [ -80.109914, 35.460982 ], [ -80.093711, 35.40203 ], [ -80.051225, 35.371537 ], [ -80.093966, 35.287087 ] ] ] } },
{ "type": "Feature", "properties": { "STATEFP": "37", "GEOID": "37169", "NAME": "Stokes", "ALAND": 1163740817 }, "geometry": { "type": "Polygon", "coordinates": [ [ [ -80.451925, 36.261515 ], [ -80.44034, 36.550665 ], [ -80.027339, 36.54248 ], [ -80.035119, 36.257184 ], [ -80.451925, 36.261515 ] ] ] } },
{ "type": "Feature", "properties": { "STATEFP": "37", "GEOID": "37171", "NAME": "Surry", "ALAND": 1379541809 }, "geometry": { "type": "Polygon", "coordinates": [ [ [ -80.44034, 36.550665 ], [ -80.452656, 36.241651 ], [ -80.471041, 36.260964 ], [ -80.534177, 36.258505 ], [ -80.547145, 36.285274 ], [ -80.593253, 36.269845 ], [ -80.62784, 36.287934 ], [ -80.655145, 36.252067 ], [ -80.684583, 36.268751 ], [ -80.733348, 36.267201 ], [ -80.737596, 36.280358 ], [ -80.751778, 36.263379 ], [ -80.775751, 36.274023 ], [ -80.796485, 36.248027 ], [ -80.873205, 36.236305 ], [ -80.868746, 36.326447 ], [ -80.955777, 36.384731 ], [ -80.967153, 36.40202 ], [ -80.947182, 36.419074 ], [ -80.973643, 36.453474 ], [ -80.926915, 36.501219 ], [ -80.901641, 36.561766 ], [ -80.729953, 36.562349 ], [ -80.44034, 36.550665 ] ] ] } },
{ "type": "Feature", "properties": { "STATEFP": "37", "GEOID": "37173", "NAME": "Swain", "ALAND": 1366790479 }, "geometry": { "type": "Polygon", "coordinates": [ [ [ -83.953392, 35.460233 ], [ -83.911653, 35.476243 ], [ -83.879848, 35.51905 ], [ -83.820467, 35.525652 ], [ -83.77136, 35.561606 ], [ -83.64013, 35.566165 ], [ -83.608336, 35.580015 ], [ -83.584374, 35.562698 ], [ -83.498544, 35.562888 ], [ -83.445676, 35.611747 ], [ -83.396147, 35.622866 ], [ -83.341064, 35.664589 ], [ -83.298244, 35.657255 ], [ -83.254075, 35.695659 ], [ -83.21513, 35.692337 ], [ -83.181977, 35.671327 ], [ -83.20243, 35.6445 ], [ -83.177098, 35.631955 ], [ -83.183541, 35.586317 ], [ -83.155835, 35.552622 ], [ -83.183646, 35.514995 ], [ -83.236073, 35.524564 ], [ -83.317882, 35.465302 ], [ -83.351726, 35.468092 ], [ -83.362597, 35.41765 ], [ -83.33144, 35.353733 ], [ -83.346833, 35.328532 ], [ -83.410918, 35.316528 ], [ -83.432586, 35.325155 ], [ -83.467382, 35.297778 ], [ -83.490276, 35.305547 ], [ -83.680081, 35.279298 ], [ -83.690594, 35.317158 ], [ -83.616995, 35.349064 ], [ -83.593092, 35.376986 ], [ -83.585756, 35.434832 ], [ -83.610814, 35.427045 ], [ -83.64242, 35.443618 ], [ -83.652224, 35.426476 ], [ -83.800838, 35.4558 ], [ -83.808424, 35.443955 ], [ -83.907495, 35.466467 ], [ -83.935745, 35.448435 ], [ -83.953392, 35.460233 ] ] ] } },
{ "type": "Feature", "properties": { "STATEFP": "37", "GEOID": "37175", "NAME": "Transylvania", "ALAND": 979943598 }, "geometry": { "type": "Polygon", "coordinates": [ [ [ -82.831871, 35.318388 ], [ -82.745139, 35.422967 ], [ -82.619248, 35.303708 ], [ -82.574839, 35.145449 ], [ -82.628756, 35.125777 ], [ -82.643348, 35.133782 ], [ -82.662629, 35.118156 ], [ -82.681747, 35.127972 ], [ -82.697634, 35.09596 ], [ -82.726733, 35.094673 ], [ -82.757176, 35.067203 ], [ -82.781731, 35.065305 ], [ -82.783172, 35.085921 ], [ -83.008531, 35.027394 ], [ -83.032458, 35.037734 ], [ -83.056934, 35.053864 ], [ -82.976807, 35.132684 ], [ -82.996627, 35.163578 ], [ -82.928504, 35.234748 ], [ -82.920881, 35.292037 ], [ -82.831871, 35.318388 ] ] ] } },
{ "type": "Feature", "properties": { "STATEFP": "37", "GEOID": "37177", "NAME": "Tyrrell", "ALAND": 1012106670 }, "geometry": { "type": "Polygon", "coordinates": [ [ [ -76.020573, 35.841085 ], [ -76.033151, 35.661995 ], [ -76.061095, 35.675222 ], [ -76.098314, 35.670179 ], [ -76.141555, 35.70277 ], [ -76.168962, 35.698802 ], [ -76.213765, 35.59831 ], [ -76.285839, 35.604464 ], [ -76.297899, 35.608895 ], [ -76.269247, 35.690754 ], [ -76.405971, 35.697579 ], [ -76.405603, 35.786294 ], [ -76.353554, 35.861301 ], [ -76.380009, 35.914666 ], [ -76.358141, 35.951564 ], [ -76.358393, 36.020019 ], [ -76.209926, 36.042027 ], [ -76.022607, 36.096725 ], [ -76.022398, 36.086654 ], [ -75.906295, 36.085877 ], [ -75.874806, 36.041789 ], [ -75.840046, 36.028834 ], [ -75.973152, 35.976643 ], [ -76.020573, 35.841085 ] ] ] } },
{ "type": "Feature", "properties": { "STATEFP": "37", "GEOID": "37179", "NAME": "Union", "ALAND": 1638787125 }, "geometry": { "type": "Polygon", "coordinates": [ [ [ -80.276829, 35.195722 ], [ -80.320828, 34.813906 ], [ -80.797484, 34.819803 ], [ -80.781921, 34.935848 ], [ -80.840175, 35.002097 ], [ -80.769933, 35.034531 ], [ -80.550349, 35.208412 ], [ -80.44008, 35.16104 ], [ -80.370122, 35.179786 ], [ -80.356982, 35.16494 ], [ -80.276829, 35.195722 ] ] ] } },
{ "type": "Feature", "properties": { "STATEFP": "37", "GEOID": "37181", "NAME": "Vance", "ALAND": 653701482 }, "geometry": { "type": "Polygon", "coordinates": [ [ [ -78.338135, 36.234448 ], [ -78.37814, 36.235065 ], [ -78.421642, 36.164369 ], [ -78.508332, 36.182923 ], [ -78.511224, 36.454808 ], [ -78.497736, 36.514664 ], [ -78.466349, 36.52412 ], [ -78.456913, 36.542541 ], [ -78.323991, 36.543822 ], [ -78.277165, 36.306132 ], [ -78.338135, 36.234448 ] ] ] } },
{ "type": "Feature", "properties": { "STATEFP": "37", "GEOID": "37183", "NAME": "Wake", "ALAND": 2161621264 }, "geometry": { "type": "Polygon", "coordinates": [ [ [ -78.469201, 35.706623 ], [ -78.708902, 35.519458 ], [ -78.995048, 35.610166 ], [ -78.906071, 35.868096 ], [ -78.829965, 35.866978 ], [ -78.804836, 35.927552 ], [ -78.759104, 35.918394 ], [ -78.741707, 35.933906 ], [ -78.699316, 36.011448 ], [ -78.719951, 36.02959 ], [ -78.753611, 36.031384 ], [ -78.751273, 36.070834 ], [ -78.705602, 36.076443 ], [ -78.426864, 35.975012 ], [ -78.394331, 35.936876 ], [ -78.353277, 35.931056 ], [ -78.350375, 35.909517 ], [ -78.307125, 35.896718 ], [ -78.253711, 35.827478 ], [ -78.469201, 35.706623 ] ] ] } },
{ "type": "Feature", "properties": { "STATEFP": "37", "GEOID": "37185", "NAME": "Warren", "ALAND": 1112119289 }, "geometry": { "type": "Polygon", "coordinates": [ [ [ -77.899773, 36.544596 ], [ -77.920104, 36.436051 ], [ -77.911963, 36.382446 ], [ -77.942406, 36.298526 ], [ -78.006551, 36.202633 ], [ -78.030468, 36.214539 ], [ -78.110069, 36.210204 ], [ -78.132739, 36.246281 ], [ -78.173172, 36.255492 ], [ -78.193922, 36.246773 ], [ -78.306965, 36.266191 ], [ -78.277165, 36.306132 ], [ -78.323991, 36.543822 ], [ -77.899773, 36.544596 ] ] ] } },
{ "type": "Feature", "properties": { "STATEFP": "37", "GEOID": "37187", "NAME": "Washington", "ALAND": 897456201 }, "geometry": { "type": "Polygon", "coordinates": [ [ [ -76.84462, 35.705719 ], [ -76.792763, 35.790067 ], [ -76.802606, 35.805165 ], [ -76.781168, 35.853447 ], [ -76.73807, 35.877621 ], [ -76.683751, 35.953101 ], [ -76.618125, 35.976925 ], [ -76.493375, 35.985224 ], [ -76.396794, 36.026443 ], [ -76.358393, 36.020019 ], [ -76.358141, 35.951564 ], [ -76.380009, 35.914666 ], [ -76.353554, 35.861301 ], [ -76.405603, 35.786294 ], [ -76.405971, 35.697579 ], [ -76.84462, 35.705719 ] ] ] } },
{ "type": "Feature", "properties": { "STATEFP": "37", "GEOID": "37189", "NAME": "Watauga", "ALAND": 809214845 }, "geometry": { "type": "Polygon", "coordinates": [ [ [ -81.545488, 36.117475 ], [ -81.811522, 36.111459 ], [ -81.829377, 36.169011 ], [ -81.856781, 36.19368 ], [ -81.885383, 36.189451 ], [ -81.909008, 36.216392 ], [ -81.893489, 36.264531 ], [ -81.917576, 36.285507 ], [ -81.908167, 36.301966 ], [ -81.793085, 36.362408 ], [ -81.764954, 36.338722 ], [ -81.707475, 36.335225 ], [ -81.728781, 36.391309 ], [ -81.638186, 36.349606 ], [ -81.566119, 36.272037 ], [ -81.477516, 36.24025 ], [ -81.455792, 36.200441 ], [ -81.500366, 36.142527 ], [ -81.545488, 36.117475 ] ] ] } },
{ "type": "Feature", "properties": { "STATEFP": "37", "GEOID": "37191", "NAME": "Wayne", "ALAND": 1434651140 }, "geometry": { "type": "Polygon", "coordinates": [ [ [ -77.824362, 35.58646 ], [ -77.826744, 35.42409 ], [ -77.799861, 35.382282 ], [ -77.82418, 35.343811 ], [ -77.834249, 35.177846 ], [ -77.888768, 35.159962 ], [ -77.892019, 35.146348 ], [ -77.925671, 35.17292 ], [ -77.970109, 35.165922 ], [ -78.020633, 35.193967 ], [ -78.077389, 35.175135 ], [ -78.16342, 35.189716 ], [ -78.161845, 35.204323 ], [ -78.246217, 35.225996 ], [ -78.30658, 35.287604 ], [ -78.289711, 35.315077 ], [ -78.153243, 35.350671 ], [ -78.15491, 35.41781 ], [ -78.058006, 35.597806 ], [ -77.998348, 35.585597 ], [ -77.824362, 35.58646 ] ] ] } },
{ "type": "Feature", "properties": { "STATEFP": "37", "GEOID": "37193", "NAME": "Wilkes", "ALAND": 1952016296 }, "geometry": { "type": "Polygon", "coordinates": [ [ [ -80.98766, 36.055846 ], [ -81.057572, 36.03155 ], [ -81.237811, 36.030885 ], [ -81.326728, 35.994851 ], [ -81.344981, 36.025623 ], [ -81.396396, 36.040764 ], [ -81.407414, 36.07185 ], [ -81.44477, 36.072131 ], [ -81.453986, 36.090494 ], [ -81.516465, 36.097476 ], [ -81.545488, 36.117475 ], [ -81.500366, 36.142527 ], [ -81.455792, 36.200441 ], [ -81.475389, 36.253036 ], [ -81.458236, 36.248415 ], [ -81.430587, 36.265794 ], [ -81.414088, 36.294732 ], [ -81.378643, 36.277913 ], [ -81.366667, 36.285884 ], [ -81.354301, 36.355608 ], [ -81.33194, 36.372236 ], [ -81.24332, 36.366088 ], [ -81.162956, 36.432515 ], [ -81.138242, 36.412479 ], [ -81.095112, 36.440773 ], [ -81.078047, 36.417921 ], [ -81.044272, 36.411063 ], [ -81.026688, 36.373195 ], [ -80.981373, 36.37616 ], [ -80.967153, 36.40202 ], [ -80.868746, 36.326447 ], [ -80.881591, 36.055718 ], [ -80.98766, 36.055846 ] ] ] } },
{ "type": "Feature", "properties": { "STATEFP": "37", "GEOID": "37195", "NAME": "Wilson", "ALAND": 952012884 }, "geometry": { "type": "Polygon", "coordinates": [ [ [ -77.806291, 35.583436 ], [ -78.058006, 35.597806 ], [ -78.064784, 35.585263 ], [ -78.125587, 35.603111 ], [ -78.161174, 35.71274 ], [ -78.192117, 35.730545 ], [ -77.897358, 35.843853 ], [ -77.844737, 35.837618 ], [ -77.828444, 35.867208 ], [ -77.751339, 35.827794 ], [ -77.718436, 35.728823 ], [ -77.665131, 35.674935 ], [ -77.806291, 35.583436 ] ] ] } },
{ "type": "Feature", "properties": { "STATEFP": "37", "GEOID": "37197", "NAME": "Yadkin", "ALAND": 867498039 }, "geometry": { "type": "Polygon", "coordinates": [ [ [ -80.881591, 36.055718 ], [ -80.873205, 36.236305 ], [ -80.785895, 36.252025 ], [ -80.775165, 36.274321 ], [ -80.751778, 36.263379 ], [ -80.736969, 36.280313 ], [ -80.733348, 36.267201 ], [ -80.684583, 36.268751 ], [ -80.65732, 36.25182 ], [ -80.628209, 36.287929 ], [ -80.593253, 36.269845 ], [ -80.546009, 36.284935 ], [ -80.532795, 36.258133 ], [ -80.466728, 36.25982 ], [ -80.432131, 36.217278 ], [ -80.446336, 36.207699 ], [ -80.439437, 36.136925 ], [ -80.515607, 36.093303 ], [ -80.496283, 36.046545 ], [ -80.881591, 36.055718 ] ] ] } },
{ "type": "Feature", "properties": { "STATEFP": "37", "GEOID": "37199", "NAME": "Yancey", "ALAND": 809610024 }, "geometry": { "type": "Polygon", "coordinates": [ [ [ -82.145361, 35.931799 ], [ -82.148317, 35.822728 ], [ -82.133554, 35.822592 ], [ -82.167861, 35.789253 ], [ -82.160474, 35.774258 ], [ -82.193402, 35.735314 ], [ -82.266424, 35.700362 ], [ -82.285164, 35.725851 ], [ -82.334867, 35.749054 ], [ -82.348864, 35.81168 ], [ -82.413953, 35.819839 ], [ -82.42365, 35.869529 ], [ -82.451508, 35.898812 ], [ -82.494506, 35.909144 ], [ -82.498548, 35.930193 ], [ -82.480103, 35.948958 ], [ -82.50354, 35.98192 ], [ -82.460583, 36.007724 ], [ -82.416738, 36.072827 ], [ -82.39866, 36.081911 ], [ -82.376574, 36.070855 ], [ -82.351958, 36.084519 ], [ -82.338201, 36.030088 ], [ -82.312435, 36.026104 ], [ -82.299674, 36.045684 ], [ -82.253306, 35.989717 ], [ -82.252115, 36.008683 ], [ -82.197142, 36.014683 ], [ -82.185918, 35.960147 ], [ -82.197665, 35.952207 ], [ -82.169724, 35.928617 ], [ -82.145361, 35.931799 ] ] ] } }
]
}
